buyer,street,locality,postcode,country
DB NETZ AG (BUKR 16),ADAM-RIESE-STRAßE 11-13,FRANKFURT MAIN,60327,GERMANY
"LANDESHAUPTSTADT MÜNCHEN, BAUREFERAT",FRIEDENSTRAßE 40,MÜNCHEN,81671,GERMANY
SYKEHUSINNKJØP HF,POSTBOKS 40,VADSØ,9811,NORWAY
GEMEENTE ROTTERDAM,WILHELMINAKADE 179,ROTTERDAM,3002 AN,NETHERLANDS
TRAFIKVERKET MYNDIGHET,HUVUDKONTORET RÖDA VÄGEN 1,BORLÄNGE,781 99,SWEDEN
POLSKA GRUPA GÓRNICZA S.A.,UL. POWSTAŃCÓW 30,KATOWICE,40-039,POLAND
DEPARTMENT OF CONTRACTS,NOTRE DAME RAVELIN,FLORIANA,FRN 1600,MALTA
"BUNDESREPUBLIK DEUTSCHLAND, VERTRETEN DURCH DAS BESCHAFFUNGSAMT DES BMI",BRÜHLER STRAßE 3,BONN,53119,GERMANY
DIRECCIÓN DEL ENTE PÚBLICO EXTREMEÑO DE SERVICIOS EDUCATIVOS COMPLEMENTARIOS,"AVDA. VALHONDO, S/N EDIFICIO III MILENIO",MÉRIDA,6800,SPAIN
SBH | SCHULBAU HAMBURG,AN DER STADTHAUSBRÜCKE 1,HAMBURG,20355,GERMANY
SECTORAL PROCUREMENT DIRECTORATE,"DEPARTMENT OF CONTRACTS, NOTRE DAME RAVELIN",FLORIANA,FRN1600,MALTA
"STAATSBETRIEB SÄCHSISCHES IMMOBILIEN- UND BAUMANAGEMENT, ZENTRALE, ZENTRALSTELLE VERGABE- UND VERTRAGSMANAGEMENT",RIESAER STR. 7H,DRESDEN,1129,GERMANY
SPITAL CLINIC JUDETEAN DE URGENTA ORADEA,"STRADA: REPUBLICII, NR. 37",ORADEA,410159,ROMANIA
DEUTSCHE GESELLSCHAFT FÜR INTERNATIONALE ZUSAMMENARBEIT (GIZ) GMBH,DAG-HAMMARSKJÖLD-WEG 1 - 5,ESCHBORN,65760,GERMANY
ŘEDITELSTVÍ SILNIC A DÁLNIC ČR,NA PANKRÁCI 546/56,PRAHA,14000,CZECH REPUBLIC
REGIA NATIONALA A PADURILOR - ROMSILVA RA,"STRADA PETRICANI, NR. 9A, SECTOR: 2",BUCURESTI,23842,ROMANIA
SUFFOLK COUNTY COUNCIL,"ENDEAVOUR HOUSE, RUSSELL ROAD",IPSWICH,IP1 2BX,UNITED KINGDOM
FRAUNHOFER-GESELLSCHAFT - EINKAUF B12,HANSASTRAßE 27C,MÜNCHEN,80686,GERMANY
PUOLUSTUSVOIMAT,,HELSINKI,,FINLAND
"EMPRESA DE TRANSFORMACIÓN AGRARIA S.A.,S.M.E., M.P., (TRAGSA)",MALDONADO 58,MADRID,28006,SPAIN
СТОЛИЧНА ОБЩИНА,УЛ. МОСКОВСКА №33,ГР.СОФИЯ,1000,BULGARIA
"НАЦИОНАЛНА КОМПАНИЯ ""ЖЕЛЕЗОПЪТНА ИНФРАСТРУКТУРА"" ДП","БУЛ. ""КНЯГИНЯ МАРИЯ ЛУИЗА” № 110",ГР. СОФИЯ,1233,BULGARIA
AKADEMIA GÓRNICZO - HUTNICZA IM. STANISŁAWA STASZICA W KRAKOWIE,"AL. MICKIEWICZA 30, 30-059 KRAKÓW",KRAKÓW,30-059,POLAND
AUTORITATEA NATIONALA DE MANAGEMENT AL CALITATII IN SANATATE,"STRADA SPLAIUL INDEPENDENŢEI, NR. 202A",BUCURESTI,60022,ROMANIA
MINISTERSTVO OBRANY,TYCHONOVA 221/1,PRAHA,16000,CZECH REPUBLIC
LIETUVOS SVEIKATOS MOKSLŲ UNIVERSITETO LIGONINĖ KAUNO KLINIKOS,EIVENIŲ G. 2,KAUNAS,50161,LITHUANIA
VŠĮ VILNIAUS UNIVERSITETO LIGONINĖ SANTAROS KLINIKOS,SANTARIŠKIŲ G. 2,VILNIUS,8661,LITHUANIA
SPITALUL JUDETEAN DE URGENTA TULCEA,"STRADA: 1848, NR. 32",TULCEA,820195,ROMANIA
PAŃSTWOWE GOSPODARSTWO WODNE WODY POLSKIE,UL. ŻELAZNA 59A,WARSZAWA,00-848,POLAND
FAKULTNÍ NEMOCNICE OLOMOUC,I. P. PAVLOVA 185/6,OLOMOUC,77900,CZECH REPUBLIC
GRAD ZAGREB,AVENIJA DUBROVNIK 15,ZAGREB,10020,CROATIA
SUFFOLK COUNTY COUNCIL,,IPSWICH,,UNITED KINGDOM
"AS ""LATVIJAS VALSTS MEŽI""",VAIŅODES IELA 1,RĪGA,LV -1004,LATVIA
ZAKŁAD ZAMÓWIEŃ PUBLICZNYCH PRZY MINISTRZE ZDROWIA,"AL. JEROZOLIMSKIE 155, POK. 115",WARSZAWA,02-326,POLAND
"BUNDESAMT FÜR AUSRÜSTUNG, INFORMATIONSTECHNIK UND NUTZUNG DER BUNDESWEHR",FERDINAND-SAUERBRUCH-STRAßE 1,KOBLENZ,56073,GERMANY
ТЕЦ МАРИЦА ИЗТОК 2 ЕАД,"ОБЛАСТ СТАРА ЗАГОРА, ОБЩИНА РАДНЕВО",С. КОВАЧЕВО,6265,BULGARIA
"AENA, S.M.E., S.A.","C/ PEONÍAS, 12 REGISTRO GENERAL",MADRID,28042,SPAIN
"KRAJSKÁ ZDRAVOTNÍ, A.S.",SOCIÁLNÍ PÉČE 3316/12A,ÚSTÍ NAD LABEM,40113,CZECH REPUBLIC
UNIWERSYTECKIE CENTRUM KLINICZNE WARSZAWSKIEGO UNIWERSYTETU MEDYCZNEGO,UL. BANACHA 1A,WARSZAWA,02-097,POLAND
UNIWERSYTECKIE CENTRUM KLINICZNE,UL. DĘBINKI 7,GDAŃSK,80-952,POLAND
"BERLINER VERKEHRSBETRIEBE, BEREICH EINKAUF/ MATERIALWIRTSCHAFT",HOLZMARKTSTRAßE 15-17,BERLIN,10179,GERMANY
"LANDESBETRIEB BAU UND IMMOBILIEN HESSEN, NIEDERLASSUNG MITTE ZENTRALE VERGABE",DIESELSTRAßE 1-7,BAD NAUHEIM,61231,GERMANY
"SERVICIO MADRILENO DE SALUD, HOSPITAL UNIVERSITARIO LA PAZ","Pº DE LA CASTELLANA, 261",MADRID,28046,SPAIN
ЕЛЕКТРОРАЗПРЕДЕЛЕНИЕ ЮГ ЕАД,УЛ. ХРИСТО Г. ДАНОВ №37,ГР. ПЛОВДИВ,4000,BULGARIA
BWI GMBH,DACHAUER STRAßE 128,MÜNCHEN,80637,GERMANY
LANDESBETRIEB BAU UND IMMOBILIEN HESSEN NIEDERLASSUNG MITTE ZENTRALE VERGABE,DIESELSTRAßE 1-7,BAD NAUHEIM,61231,GERMANY
AMGROS I/S,DAMPFÆRGEVEJ 22,KØBENHAVN Ø,2100,DENMARK
ČESKÁ REPUBLIKA - MINISTERSTVO VNITRA,NAD ŠTOLOU 936/3,PRAHA 7,170 34,CZECH REPUBLIC
"LAND HESSEN, VERTRETEN DURCH DAS HESSISCHE COMPETENCE CENTER -ZENTRALE BESCHAFFUNG-",RHEINGAUSTRAßE 186,WIESBADEN,65203,GERMANY
TOULOUSE METROPOLE,"DIRECTION DE LA COMMANDE PUBLIQUE, 6 RUE RENÉ LEDUC",TOULOUSE,31505,FRANCE
"INSTITUTUL DE BOLI INFECTIOASE ""PROF. DR. MATEI BALS""","STRADA: GROZOVICI CALISTRAT, DR., NR. 1",BUCURESTI,21105,ROMANIA
RIIGI KAITSEINVESTEERINGUTE KESKUS,JÄRVE TN 34A,TALLINN,11314,ESTONIA
MINISTERSTVO VNÚTRA SLOVENSKEJ REPUBLIKY,PRIBINOVA 2,BRATISLAVA - STARÉ MESTO,81272,SLOVAKIA
LIEPĀJAS VALSTSPILSĒTAS PAŠVALDĪBA,ROŽU IELA 6,LIEPĀJA,LV-3401,LATVIA
"INSTITUTUL DE BOLI INFECTIOASE ""PROF. DR. MATEI BALS""","STRADA DR. CALISTRAT GROZOVICI NR. 1, SECTOR 2",BUCURESTI,21105,ROMANIA
DB STATION&SERVICE AG (BUKR 11),EUROPAPLATZ 1,BERLIN,10557,GERMANY
"AB ""LIETUVOS GELEŽINKELIAI""",GELEŽINKELIO G. 16,VILNIUS,2100,LITHUANIA
BKM BUDAPESTI KÖZMŰVEK NONPROFIT ZÁRTKÖRŰEN MŰKÖDŐ RÉSZVÉNYTÁRSASÁG,KALOTASZEG UTCA 31,BUDAPEST,1116,HUNGARY
STAATSBOSBEHEER,SMALLEPAD 5,AMERSFOORT,3811 MG,NETHERLANDS
RATP,"LAC B916 - 54, QUAI DE LA RAPÉE",PARIS CEDEX 12,75599,FRANCE
GIRONDE HABITAT,"40 RUE D'ARMAGNAC, CS 71232",BORDEAUX,33074,FRANCE
SZPITAL UNIWERSYTECKI W KRAKOWIE,UL. KOPERNIKA 36,KRAKÓW,31-501,POLAND
VŠĮ KLAIPĖDOS UNIVERSITETINĖ LIGONINĖ,"LIEPOJOS G. 41,",KLAIPĖDA,92288,LITHUANIA
KLINIČKI BOLNIČKI CENTAR ZAGREB,KIŠPATIĆEVA 12,ZAGREB,10000,CROATIA
"ČEZ DISTRIBUCE, A. S.",TEPLICKÁ 874/8,DĚČÍN,40502,CZECH REPUBLIC
DAK-GESUNDHEIT,NAGELSWEG 27-31,HAMBURG,20097,GERMANY
ŘEDITELSTVÍ SILNIC A DÁLNIC ČR,NA PANKRÁCI 546/56,PRAHA 4,14000,CZECH REPUBLIC
STADT ZÜRICH AMT FÜR HOCHBAUTEN,POSTFACH,ZÜRICH,8021,SWITZERLAND
AOK - RHEINLAND-PFALZ/SAARLAND - DIE GESUNDHEITSKASSE,VIRCHOWSTRAßE 30,EISENBERG,67304,GERMANY
ΥΠΟΥΡΓΕΊΟ ΥΓΕΊΑΣ,ΠΡΟΔΡΌΜΟΥ 1 ΚΑΙ ΧΕΊΛΩΝΟΣ 17,ΛΕΥΚΩΣΊΑ,1448,CYPRUS
"MIEJSKIE PRZEDSIĘBIORSTWO WODOCIĄGÓW I KANALIZACJI W M.ST. WARSZAWIE S. A. ZAREJESTROWANE W KRAJOWYM REJESTRZE SĄDOWYM W SĄDZIE REJONOWYM DLA M.ST. WARSZAWY W WARSZAWIE, XII WYDZIAŁ GOSPODARCZY KRAJOWEGO REJESTRU SĄDOWEGO POD NUMEREM KRS 0000146138",PL. STARYNKIEWICZA 5,WARSZAWA,02-015,POLAND
UM 0929 BUCURESTI,"STRADA FRANCEZĂ, NR. 48-50",BUCURESTI,30105,ROMANIA
DIRECCIÓN GENERAL DE CARRETERAS,PASEO DE LA CASTELLANA 67 - DESPACHO B750,MADRID,28071,SPAIN
INSTITUT KLINICKÉ A EXPERIMENTÁLNÍ MEDICÍNY,VÍDEŇSKÁ 1958/9,PRAHA,14000,CZECH REPUBLIC
"ČEZ, A. S.",DUHOVÁ 1444/2,PRAHA,14000,CZECH REPUBLIC
"DEUTSCHE BUNDESBANK, ZENTRALBEREICH BESCHAFFUNGEN",TAUNUSANLAGE 5,FRANKFURT AM MAIN,60329,GERMANY
RĪGAS STRADIŅA UNIVERSITĀTE,DZIRCIEMA IELA 16,RĪGA,LV 1007,LATVIA
"SPITALUL JUDETAN DE URGENTA ""MAVROMATI"" BOTOSANI","STRADA: MARCHIAN, ARHIMANDRIT, NR. 11",BOTOSANI,710211,ROMANIA
STADT WIEN - WIENER WOHNEN,ROSA-FISCHER-GASSE 2,WIEN,1030,AUSTRIA
JELGAVAS VALSTSPILSĒTAS PAŠVALDĪBA,LIELĀ IELA 11,JELGAVA,LV 3001,LATVIA
HOSPITAL CLINICO SAN CARLOS DE MADRID,C/ PROFESOR MARTÍN LAGOS S/N,MADRID,28040,SPAIN
VÄSTRA GÖTALANDSREGIONEN,REGIONENS HUS,VÄNERSBORG,462 80,SWEDEN
"PRESIDENCIA DE LA AGENCIA ESTATAL CONSEJO SUPERIOR DE INVESTIGACIONES CIENTÍFICAS, M.P.",C/ SERRANO 117,MADRID,28006,SPAIN
STATENS VEGVESEN,SKOGGATA 19,MOSS,1500,NORWAY
FAKULTNÍ NEMOCNICE BRNO,JIHLAVSKÁ 340/20,BRNO,62500,CZECH REPUBLIC
"STADT MÜNSTER, ZENTRALES VERGABEMANAGEMENT",KLEMENSSTRAßE 10,MÜNSTER,48143,GERMANY
VĮ TURTO BANKAS,KĘSTUČIO G. 45,VILNIUS,8124,LITHUANIA
"УНИВЕРСИТЕТСКА МНОГОПРОФИЛНА БОЛНИЦА ЗА АКТИВНО ЛЕЧЕНИЕ ""СВ. ИВАН РИЛСКИ"" ЕАД",БУЛ. АКАД. ИВАН ГЕШОВ № 15,ГР. СОФИЯ,1431,BULGARIA
BORDEAUX MÉTROPOLE,ESPLANADE CHARLES DE GAULLE,BORDEAUX,33045,FRANCE
TECHNIKER KRANKENKASSE,BRAMFELDER STR. 140,HAMBURG,22305,GERMANY
ОБЩИНА ВАРНА,БУЛ. ОСМИ ПРИМОРСКИ ПОЛК №.43,ГР.ВАРНА,9000,BULGARIA
FRAUNHOFER-GESELLSCHAFT - EINKAUF C2,HANSASTRAßE 27C,MÜNCHEN,80686,GERMANY
3 REGIONALNA BAZA LOGISTYCZNA,UL. MONTELUPICH 3,KRAKÓW,30-901,POLAND
4 REGIONALNA BAZA LOGISTYCZNA,UL. PRETFICZA 28,WROCŁAW,50-984,POLAND
VSIA „PAULA STRADIŅA KLĪNISKĀ UNIVERSITĀTES SLIMNĪCA”,PILSOŅU IELA 13,RĪGA,LV - 1002,LATVIA
SANSIA OY,"PL 2000, VIESTIKATU 3",KUOPIO,70600,FINLAND
MINISTRSTVO ZA OBRAMBO,VOJKOVA CESTA 55,LJUBLJANA,1000,SLOVENIA
FERROCARRILS DE LA GENERALITAT DE CATALUNYA,"C. DELS VERGÓS, 44",BARCELONA,8017,SPAIN
LIETUVOS SVEIKATOS MOKSLŲ UNIVERSITETO LIGONINĖ KAUNO KLINIKOS,"EIVENIŲ G. 2, LT-50161 KAUNAS",KAUNAS,50161,LITHUANIA
PGE ENERGIA CIEPŁA S.A.,"BUDYNEK SKYLIGHT, XII P. PRZY UL. ZŁOTEJ 59",WARSZAWA,00-120,POLAND
STOCKHOLMS LÄNS SJUKVÅRDSOMRÅDE,BOX 454 36,STOCKHOLM,104 31,SWEDEN
"BAU- UND VERKEHRSDEPARTEMENT DES KANTONS BASEL-STADT, KANTONALE FACHSTELLE FÜR ÖFFENTLICHE BESCHAFFUNGEN","MÜNSTERPLATZ 11, POSTFACH",BASEL,4001,SWITZERLAND
FAKULTNÍ NEMOCNICE V MOTOLE,V ÚVALU 84,PRAHA 5,15006,CZECH REPUBLIC
ЕЛЕКТРОЕНЕРГИЕН СИСТЕМЕН ОПЕРАТОР ЕАД,БУЛ. ЦАР БОРИС III № 201,ГР. СОФИЯ,1618,BULGARIA
GMH | GEBÄUDEMANAGEMENT HAMBURG GMBH,AN DER STADTHAUSBRÜCKE 1,HAMBURG,20355,GERMANY
"LANDESHAUPTSTADT DÜSSELDORF, DER OBERBÜRGERMEISTER, RECHTSAMT",WILLI-BECKER-ALLEE 10,DÜSSELDORF,40227,GERMANY
VALSTS AIZSARDZĪBAS LOĢISTIKAS UN IEPIRKUMU CENTRS,BIKSĒRES IELA 6,RĪGA,LV-1073,LATVIA
BUDAPESTI KÖZLEKEDÉSI ZÁRTKÖRŰEN MŰKÖDŐ RÉSZVÉNYTÁRSASÁG,AKÁCFA UTCA 15.,BUDAPEST,1980,HUNGARY
SPITAL CLINIC JUDETEAN DE URGENTA ARAD,"STRADA: ANDRENY KAROLY, NR. 2-4",ARAD,310037,ROMANIA
SIHTASUTUS PÕHJA-EESTI REGIONAALHAIGLA,J. SÜTISTE TEE 19,TALLINN,13419,ESTONIA
MINISTERIE VAN DEFENSIE,KALVERMARKT 32,DEN HAAG,2511 CB,NETHERLANDS
AB „KELIŲ PRIEŽIŪRA“,SAVANORIŲ PR. 321C,KAUNAS,50120,LITHUANIA
"SENATSVERWALTUNG FÜR STADTENTWICKLUNG, BAUEN UND WOHNEN",FEHRBELLINER PLATZ 2,BERLIN,10707,GERMANY
SAMODZIELNY PUBLICZNY SZPITAL KLINICZNY IM. A.MIELĘCKIEGO ŚLĄSKIEGO UNIWERSYTETU MEDYCZNEGO W KATOWICACH,UL.FRANCUSKA 20/24,KATOWICE,40-027,POLAND
GÓRNOŚLĄSKIE CENTRUM MEDYCZNE IM. PROF. LESZKA GIECA ŚLĄSKIEGO UNIWERSYTETU MEDYCZNEGO W KATOWICACH,UL. ZIOŁOWA 45/47,KATOWICE,40-635,POLAND
SPITALUL CLINIC JUDETEAN MURES,"STRADA: BERNADY GYORGY, NR. 6, SECTOR: -, JUDET: MURES",TARGU MURES,540072,ROMANIA
VIEŠOJI ĮSTAIGA CPO LT,UKMERGĖS G. 219-1,VILNIUS,7152,LITHUANIA
HIL HEERESINSTANDSETZUNGSLOGISTIK GMBH,JOSEF-WIRMER-STRAßE 2-8,BONN,53123,GERMANY
"JASTRZĘBSKA SPÓŁKA WĘGLOWA S.A. Z SIEDZIBĄ W JASTRZĘBIU-ZDROJU, ZAKŁAD WSPARCIA PRODUKCJI",UL. TOWAROWA 1,JASTRZĘBIE - ZDRÓJ,44-330,POLAND
"LESY SLOVENSKEJ REPUBLIKY, ŠTÁTNY PODNIK",NÁMESTIE SNP 8,BANSKÁ BYSTRICA,97566,SLOVAKIA
INSPECTORATUL GENERAL AL POLITIEI ROMANE,"STRADA: MIHAI VODĂ, NR. 6",BUCURESTI,50041,ROMANIA
KOMMUNALE WIRTSCHAFTS- UND LEISTUNGSGESELLSCHAFT (KWL),ARNSWALDTSTR. 28,HANNOVER,30159,GERMANY
SERVICIO MADRILEÑO DE SALUD - HOSPITAL UNIVERSITARIO 12 DE OCTUBRE,"AVENIDA DE CORDOBA, SIN NÚMERO",MADRID,28041,SPAIN
UNIWERSYTET GDAŃSKI,UL. JANA BAŻYŃSKIEGO 8,GDAŃSK,80-309,POLAND
ТЕХНИЧЕСКИ УНИВЕРСИТЕТ,КВ. ДЪРВЕНИЦА УЛ. КЛИМЕНТ ОХРИДСКИ №.8,ГР.СОФИЯ,1756,BULGARIA
UNIWERSYTECKI SZPITAL KLINICZNY IM JANA MIKULICZA - RADECKIEGO WE WROCŁAWIU,UL. BOROWSKA 213,WROCŁAW,50-556,POLAND
2 REGIONALNA BAZA LOGISTYCZNA,UL. MARSA 110,WARSZAWA,04-470,POLAND
DIGITÁLIS KORMÁNYZATI ÜGYNÖKSÉG ZÁRTKÖRŰEN MŰKÖDŐ RÉSZVÉNYTÁRSASÁG,VÁCI ÚT 37.,BUDAPEST,1134,HUNGARY
PRORAIL B.V.,MOREELSEPARK 3,UTRECHT,3511 EP,NETHERLANDS
"SNTFC ""CFR CALATORI"" S.A.","STR. DINICU GOLESCU, NR. 38, SECTOR 1",BUCURESTI,10873,ROMANIA
BANEDANMARK,CARSTEN NIEBUHRS GADE 43,KØBENHAVN V,1577,DENMARK
"АГЕНЦИЯ ""ПЪТНА ИНФРАСТРУКТУРА""",БУЛ. МАКЕДОНИЯ №.3,ГР.СОФИЯ,1606,BULGARIA
REGION OCCITANIE,22 BOULEVARD DU MARÉCHAL JUIN,TOULOUSE,31406,FRANCE
STATSBYGG,BISKOP GUNNERUS' GATE 6,OSLO,103,NORWAY
"ČESKÁ POŠTA, S.P.",POLITICKÝCH VĚZŇŮ 909/4,PRAHA 1,22599,CZECH REPUBLIC
REGIONALNY SZPITAL SPECJALISTYCZNY IM DR. WŁADYSŁAWA BIEGAŃSKIEGO,UL. L. RYDYGIERA 15/17,GRUDZIĄDZ,86-300,POLAND
RÉGION PROVENCE ALPES CÔTE D'AZUR,"HOTEL DE RÉGION, 27 PLACE JULES GUESDE",MARSEILLE,13481,FRANCE
ADMINISTRADOR DE INFRAESTRUCTURAS FERROVIARIAS,"AVENIDA PIO XII, 110 - EDIFICIO 16 (ESTACION DE CHAMARTIN)",MADRID,28036,SPAIN
AUTOBAHNEN- UND SCHNELLSTRAßEN-FINANZIERUNGS-AKTIENGESELLSCHAFT,SCHNIRCHGASSE 17,WIEN,1030,AUSTRIA
"EMPRESA MUNICIPAL DE TRANSPORTES DE MADRID, S. A.","C/ CERRO DE LA PLATA, Nº 4",MADRID,28007,SPAIN
HLAVNÍ MĚSTO PRAHA,MARIÁNSKÉ NÁMĚSTÍ 2/2,PRAHA,11000,CZECH REPUBLIC
UNIVERZITETNI KLINIČNI CENTER MARIBOR,LJUBLJANSKA ULICA 5,MARIBOR,2000,SLOVENIA
"STADT LEIPZIG, AMT FÜR GEBÄUDEMANAGEMENT",PRAGER STRAßE 118 - 136,LEIPZIG,4092,GERMANY
NODROŠINĀJUMA VALSTS AĢENTŪRA,ČIEKURKALNA 1.LĪNIJA 1 K-2,RĪGA,LV-1026,LATVIA
SPITAL CLINIC JUDETEAN DE URGENTA ARAD,"STRADA ANDRENY KAROLY, NR. 2-4",ARAD,310031,ROMANIA
TAURON WYDOBYCIE S.A.,UL. GRUNWALDZKA 37,JAWORZNO,43-600,POLAND
THÜRINGER LANDESAMT FÜR BAU UND VERKEHR,EUROPAPLATZ 3,ERFURT,99091,GERMANY
OSAKIDETZA - SERVICIO VASCO DE SALUD - ORGANIZACIÓN CENTRAL,"ALAVA, 45",VITORIA-GASTEIZ,1006,SPAIN
GWQ SERVICEPLUS AG,RIA-THIELE-STRAßE 2A,DÜSSELDORF,40549,GERMANY
НАЦИОНАЛНА ЕЛЕКТРИЧЕСКА КОМПАНИЯ ЕАД,УЛ. ТРИАДИЦА № 8,ГР. СОФИЯ,1000,BULGARIA
BUNDESIMMOBILIENGESELLSCHAFT M.B.H.,TRABRENNSTRAßE 2C,WIEN,1020,AUSTRIA
ADMINISTRADOR DE INFRAESTRUCTURAS FERROVIARIAS,"AVDA. PIO XII,110 - EDIFICIO 16",MADRID,28036,SPAIN
HEALTH SERVICE EXECUTIVE (HSE),HEAD OFFICE,NAAS,MILLENNIUM PARK,IRELAND
"INSTYTUT ""POMNIK-CENTRUM ZDROWIA DZIECKA""",AL. DZIECI POLSKICH 20,WARSZAWA,04-730,POLAND
METROPOLE D AIX MARSEILLE PROVENCE,58 BD CHARLES LIVON,MARSEILLE,13007,FRANCE
MINISTRSTVO ZA NOTRANJE ZADEVE,ŠTEFANOVA ULICA 2,LJUBLJANA,1000,SLOVENIA
STAATLICHE BAUAMT MÜNCHEN 2,LUDWIGSTRAßE 18,MÜNCHEN,80539,GERMANY
"VSIA ""BĒRNU KLĪNISKĀ UNIVERSITĀTES SLIMNĪCA""",VIENĪBAS GATVE 45,RĪGA,LV-1004,LATVIA
"LUKA KOPER, PRISTANIŠKI IN LOGISTIČNI SISTEM, DELNIŠKA DRUŽBA",VOJKOVO NABREŽJE 38,KOPER - CAPODISTRIA,6000,SLOVENIA
DIRECCIÓN DE COMPRAS DE LA CORPORACIÓN DE RADIO Y TELEVISIÓN ESPAÑOLA S.A.,"AVDA. RADIOTELEVISIÓN, 4",POZUELO DE ALARCÓN,28223,SPAIN
GWG STÄDTISCHE WOHNUNGSGESELLSCHAFT MÜNCHEN MBH,HEIMERANSTR. 31,MÜNCHEN,80339,GERMANY
VŠĮ RESPUBLIKINĖ VILNIAUS UNIVERSITETINĖ LIGONINĖ,"ŠILTNAMIŲ G. 29, LT-04130 VILNIUS",VILNIUS,4130,LITHUANIA
SPITALUL JUDETEAN DE URGENTA VALCEA,"STRADA: CALEA LUI TRAIAN, NR. 201",RAMNICU VALCEA,240011,ROMANIA
VÄYLÄVIRASTO,PL 33 (OPASTINSILTA 12 A),HELSINKI,521,FINLAND
VILNIAUS MIESTO SAVIVALDYBĖS ADMINISTRACIJA,KONSTITUCIJOS PR.3,VILNIUS,9601,LITHUANIA
MINISTARSTVO UNUTARNJIH POSLOVA,ILICA 335,ZAGREB,10000,CROATIA
UNIWERSYTECKI SZPITAL KLINICZNY W BIAŁYMSTOKU,M. SKŁODOWSKIEJ-CURIE 24A,BIAŁYSTOK,15-276,POLAND
CONSIP S.P.A. A SOCIO UNICO,"VIA ISONZO, 19/E",ROMA,198,ITALY
INVITALIA,"VIA CALABRIA, 46",ROMA,,ITALY
REGION ÖSTERGÖTLAND,CVU UPPHANDLING,LINKÖPING,581 85,SWEDEN
ОБЩИНА ПЛОВДИВ,ПЛ. СТЕФАН СТАМБОЛОВ № 1,ГР. ПЛОВДИВ,4000,BULGARIA
RIIGI TUGITEENUSTE KESKUS,LÕKKE TN 4,TALLINN,10122,ESTONIA
"HRVATSKE VODE, PRAVNA OSOBA ZA UPRAVLJANJE VODAMA",ULICA GRADA VUKOVARA 220,ZAGREB,10000,CROATIA
"MUZEUL NATIONAL AL SATULUI ""DIMITRIE GUSTI""","STRADA KISELEFF PAVEL DIMITRIEVICI, G-RAL., NR. 28-30, SECTOR: 1",BUCURESTI,11347,ROMANIA
SPRÁVA STÁTNÍCH HMOTNÝCH REZERV,ŠEŘÍKOVÁ 616/1,PRAHA,15000,CZECH REPUBLIC
STADT SOLINGEN,BONNER STR. 100,SOLINGEN,42601,GERMANY
VILLE DE LYON,"DIRECTION DE LA COMMANDE PUBLIQUE, 10 QUAI JEAN MOULIN",LYON CEDEX 01,69205,FRANCE
ОБЩИНА БУРГАС,УЛ. АЛЕКСАНДРОВСКА № 26,ГР. БУРГАС,8000,BULGARIA
"AMT FÜR RECHT, VERGABE UND VERSICHERUNGEN","STADTHAUS DEUTZ - WESTGEBÄUDE, WILLY-BRANDT-PLATZ 2",KÖLN,50679,GERMANY
"BUNDESAGENTUR FÜR ARBEIT (BA), VERTRETEN DURCH DEN VORSTAND, HIER VERTRETEN DURCH DIE LEITERIN DES GESCHÄFTSBEREICHES EINKAUF IM BA-SERVICE-HAUS",REGENSBURGER STR. 104,NÜRNBERG,90478,GERMANY
CENTRUM INFORMATYKI RESORTU FINANSÓW,UL. SAMORZĄDOWA 1,RADOM,26-601,POLAND
NEMOCNICE NA HOMOLCE,ROENTGENOVA 37/2,PRAHA,15000,CZECH REPUBLIC
POHJOIS-KARJALAN HANKINTATOIMI,LINNUNLAHDENTIE 2,JOENSUU,80110,FINLAND
ŽILINSKÝ SAMOSPRÁVNY KRAJ,KOMENSKÉHO 48,ŽILINA,1109,SLOVAKIA
JEFATURA DE ASUNTOS ECONÓMICOS DEL MANDO DE APOYO LOGÍSTICO,C/ PRIM 4-6,MADRID,28071,SPAIN
VILLE DE PARIS,7 AVENUE DE LA PORTE D'IVRY,PARIS,75013,FRANCE
METROPOLE ROUEN NORMANDIE,"LE 108, 108 ALLÉE FRANÇOIS MITTERRAND",ROUEN,76176,FRANCE
DIRECTIA GENERALA DE ASISTENTA SOCIALA SI PROTECTIA COPILULUI SECTOR 2,"STRADA: OLARI, NR. 15",BUCURESTI,24056,ROMANIA
FONDS DU LOGEMENT,52 BOULEVARD MARCEL CAHEN,LUXEMBOURG,1311,LUXEMBOURG
LAND BERLIN (SONDERVERMÖGEN IMMOBILIEN DES LANDES BERLIN),ALEXANDERSTRAßE 3,BERLIN,10178,GERMANY
"LANDESHAUPTSTADT DRESDEN, GB BILDUNG UND JUGEND, AMT FÜR SCHULEN",POSTFACH 120020,DRESDEN,1001,GERMANY
UNIVERSITÄTSKLINIKUM DÜSSELDORF,MOORENSTR. 5,DÜSSELDORF,40225,GERMANY
"SPITALUL UNIVERSITAR DE URGENTA MILITAR CENTRAL ""DR. CAROL DAVILA""","STRADA: VULCĂNESCU MIRCEA, NR. 88, SECTOR: 1, JUDET: BUCURESTI",BUCURESTI,10825,ROMANIA
STADT REGENSBURG,D.-MARTIN-LUTHER-STR. 3,REGENSBURG,93047,GERMANY
VSIA LATVIJAS VALSTS CEĻI,"GOGOĻA 3, RĪGA, LV - 1050",RĪGA,LV - 1050,LATVIA
NARODOWY BANK POLSKI,ŚWIĘTOKRZYSKA 11/21,WARSZAWA,00-919,POLAND
NARODOWY INSTYTUT ONKOLOGII IM. MARII SKŁODOWSKIEJ-CURIE – PAŃSTWOWY INSTYTUT BADAWCZY ODDZIAŁ W GLIWICACH,UL. WYBRZEŻE ARMII KRAJOWEJ 15,GLIWICE,44-102,POLAND
RÍKISKAUP,BORGARTUN 7C,REYKJAVIK,IS-105,ICELAND
SERVICIO DE SALUD DEL PRINCIPADO DE ASTURIAS,"PLAZA DEL CARBAYÓN, 1-2",OVIEDO,33001,SPAIN
SERVICIO DE SALUD DE LAS ILLES BALEARS,C/ REINA ESCLARAMUNDA,PALMA,7003,SPAIN
UNIWERSYTET JAGIELLOŃSKI,UL. GOŁĘBIA 24,KRAKÓW,31-007,POLAND
"УНИВЕРСИТЕТСКА МНОГОПРОФИЛНА БОЛНИЦА ЗА АКТИВНО ЛЕЧЕНИЕ ""СВЕТИ ГЕОРГИ"" ЕАД","БУЛ.""ПЕЩЕРСКО ШОСЕ"" №.66",ГР. ПЛОВДИВ,4002,BULGARIA
ADIF-ALTA VELOCIDAD,"AVDA. PÍO XII, 110 – CARACOLA 16",MADRID,28036,SPAIN
"CENTRO HOSPITALAR UNIVERSITÁRIO DE LISBOA NORTE, E.P.E.",LISBOA,LISBOA,1649-035,PORTUGAL
CENTRUM ONKOLOGII ZIEMI LUBELSKIEJ IM. ŚW. JANA Z DUKLI,UL. DR K. JACZEWSKIEGO 7,LUBLIN,20-090,POLAND
"INSTITUTUL DE PNEUMOFTIZIOLOGIE ""MARIUS NASTA""","STRADA: VIILOR, NR. 90",BUCURESTI,50159,ROMANIA
LA POSTE,9 RUE DU COLONEL PIERRE AVIA,75015 PARIS 15,75015,FRANCE
"VALSTS AKCIJU SABIEDRĪBA ""VALSTS NEKUSTAMIE ĪPAŠUMI""",TALEJAS IELA 1,RĪGA,LV-1026,LATVIA
DÉPARTEMENT DE LA HAUTE-SAVOIE,23 RUE DE LA PAIX,ANNECY,74041,FRANCE
EUROMETROPOLE DE STRASBOURG,"CENTRE ADMINISTRATIF, 1, PARC DE L'ETOILE",STRASBOURG,67076,FRANCE
UNIWERSYTET MEDYCZNY W BIAŁYMSTOKU,UL. JANA KILIŃSKIEGO 1,BIAŁYSTOK,15-089,POLAND
"МНОГОПРОФИЛНА БОЛНИЦА ЗА АКТИВНО ЛЕЧЕНИЕ ""Д-Р ТОТА ВЕНКОВА"" АД",УЛ. Д-Р ИЛИЕВ ДЕТСКИЯТ №.1,ГР. ГАБРОВО,5300,BULGARIA
SPITALUL JUDETEAN SATU MARE,"STRADA: PRAHOVA, NR. 1",SATU MARE,440192,ROMANIA
UPPSALA KOMMUN,"KOMMUNLEDNINGSKONTORET, GEMENSAM SERVICE, AVDELNINGEN FÖR UPPHANDLING",UPPSALA,753 75,SWEDEN
"СОФИЙСКИ УНИВЕРСИТЕТ ""СВ.КЛИМЕНТ ОХРИДСКИ""",УЛ. ЦАР ОСВОБОДИТЕЛ №15,ГР.СОФИЯ,1504,BULGARIA
"INSTYTUT ZOOTECHNIKI - PAŃSTWOWY INSTYTUT BADAWCZY 31-047 KRAKÓW, UL. SAREGO 2 ZAKŁAD DOŚWIADCZALNY PAWŁOWICE",UL. MIELŻYŃSKICH 14,PAWŁOWICE,64-122,POLAND
TAURON CIEPŁO SP. Z O.O.,UL. GRAŻYŃSKIEGO 49,KATOWICE,40-126,POLAND
ENEFIT CONNECT OÜ,VESKIPOSTI TN 2,TALLINN,10138,ESTONIA
VIEŠOJI ĮSTAIGA CENTRINĖ PROJEKTŲ VALDYMO AGENTŪRA,"S. KONARSKIO G. 13, LT-03109 VILNIUS",VILNIUS,3109,LITHUANIA
COLLECTIVITE DE CORSE,"DIRECTION DE LA COMMANDE PUBLIQUE, HÔTEL DE LA COLLECTIVITÉ DE CORSE, 22 COURS GRANDVAL",AJACCIO,20187,FRANCE
"EJIE, S.A. - SOCIEDAD INFORMÁTICA DEL GOBIERNO VASCO - EJIE-SOCIEDAD INFORMÁTICA DEL GOBIERNO VASCO","MEDITERRÁNEO, 14 01010 VITORIA-GASTEIZ",VITORIA-GASTEIZ,1010,SPAIN
STADT BRAUNSCHWEIG FACHBEREICH BAUORDNUNG UND ZENTRALE VERGABESTELLE,WENDENRING 1,BRAUNSCHWEIG,38114,GERMANY
WOJEWÓDZKI SZPITAL ZESPOLONY IM. L. RYDYGIERA W TORUNIU,UL. ŚWIĘTEGO JÓZEFA 53-59,TORUŃ,87-100,POLAND
"УНИВЕРСИТЕТСКА МНОГОПРОФИЛНА БОЛНИЦА ЗА АКТИВНО ЛЕЧЕНИЕ ""АЛЕКСАНДРОВСКА"" ЕАД",УЛ. СВ. ГЕОРГИ СОФИЙСКИ №.1,ГР. СОФИЯ,1431,BULGARIA
UNIWERSYTECKI SZPITAL KLINICZNY W OPOLU,AL.W.WITOSA 26,OPOLE,45-401,POLAND
AXENCIA PARA A MODERNIZACIÓN TECNOLÓXICA DE GALICIA - XUNTA DE GALICIA,"EDIFICIO CINC, MONTE GAIÁS, S/N.",SANTIAGO DE COMPOSTELA,15781,SPAIN
TUOMI LOGISTIIKKA OY,SÄRKIJÄRVENKATU 1,TAMPERE,33840,FINLAND
"EG.D, A.S.",LIDICKÁ 1873/36,BRNO,60200,CZECH REPUBLIC
KLINIČKI BOLNIČKI CENTAR SPLIT,SPINČIĆEVA 1,SPLIT,21000,CROATIA
SOCIETATEA COMPLEXUL ENERGETIC OLTENIA SA,"STRADA: ALEXANDRU IOAN CUZA, NR. 5",TARGU JIU,210227,ROMANIA
"SPRÁVA ŽELEZNIC, STÁTNÍ ORGANIZACE",DLÁŽDĚNÁ 1003/7,PRAHA 1,11000,CZECH REPUBLIC
SZPITAL KLINICZNY IM. HELIODORA ŚWIĘCICKIEGO UNIWERSYTETU MEDYCZNEGO IM. KAROLA MARCINKOWSKIEGO W POZNANIU,UL. PRZYBYSZEWSKIEGO 49,POZNAŃ,60-355,POLAND
10 WOJSKOWY SZPITAL KLINICZNY Z POLIKLINIKĄ SAMODZIELNY PUBLICZNY ZAKŁAD OPIEKI ZDROWOTNEJ,UL. POWSTAŃCÓW WARSZAWY 5,BYDGOSZCZ,85-681,POLAND
FAKULTNÍ NEMOCNICE U SV. ANNY V BRNĚ,PEKAŘSKÁ 664/53,BRNO,60200,CZECH REPUBLIC
NARODOWY INSTYTUT KARDIOLOGII STEFANA KARDYNAŁA WYSZYŃSKIEGO - PAŃSTWOWY INSTYTUT BADAWCZY,UL. ALPEJSKA 42,WARSZAWA,04-628,POLAND
SPITALUL CLINIC C.F. NR. 2 BUCURESTI,"STRADA: B-DUL MĂRĂŞTI, NR. 63",BUCURESTI,11464,ROMANIA
STAATLICHES BAUAMT WÜRZBURG,WEIßENBURGSTRAßE 6,WÜRZBURG,97082,GERMANY
STADT INGOLSTADT,SPITALSTR. 3,INGOLSTADT,85049,GERMANY
VALSTYBĖS ĮMONĖ VALSTYBINIŲ MIŠKŲ URĖDIJA,PRAMONĖS PR. 11 A,KAUNAS,51327,LITHUANIA
GENERALZOLLDIREKTION ZENTRALE BESCHAFFUNGSSTELLE DER BUNDESFINANZVERWALTUNG,FRIEDRICHSRING 35,OFFENBACH A.M.,63069,GERMANY
REGION HOVEDSTADEN,KONGENS VÆNGE 2,HILLERØD,3400,DENMARK
SIHTASUTUS TARTU ÜLIKOOLI KLIINIKUM,L. PUUSEPA TN 1A,TARTU LINN,50406,ESTONIA
ŚLĄSKI UNIWERSYTET MEDYCZNY W KATOWICACH,PONIATOWSKIEGO 15,KATOWICE,40-055,POLAND
ÚSTAV HEMATOLOGIE A KREVNÍ TRANSFUZE PRAHA,U NEMOCNICE 2094/1,PRAHA,12800,CZECH REPUBLIC
AUTOBAHNEN- UND SCHNELLSTRAßEN-FINANZIERUNGS-AKTIENGESELLSCHAFT,"Z.H. ASFINAG BAU MANAGEMENT GMBH, SCHNIRCHGASSE 17",WIEN,1030,AUSTRIA
"INSTITUTUL DE BOLI INFECTIOASE ""PROF. DR. MATEI BALS""",STRADA: DR. CALISTRAT GROZOVICI NR. 1,BUCURESTI,21105,ROMANIA
NORSK HELSENETT SF,ABELS GATE 9,TRONDHEIM,7030,NORWAY
SAMODZIELNY PUBLICZNY SZPITAL KLINICZNY NR 1 PUM,UL.UNII LUBELSKIEJ 1,SZCZECIN,71-252,POLAND
MINISTERUL APARARII - UNITATEA MILITARA 02574,"STRADA: DRUMUL TABEREI, NR. 7B",BUCURESTI,61352,ROMANIA
SZPITALE POMORSKIE SP. Z O.O.,UL. POWSTANIA STYCZNIOWEGO 1,GDYNIA,81-519,POLAND
HOSPITAL CLÍNIC DE BARCELONA,"VILLARROEL, 170 ENTRE ESCALES 1 I 2, 3ª PL.",BARCELONA,8036,SPAIN
"SPMS - SERVIÇOS PARTILHADOS DO MINISTÉRIO DA SAÚDE, E. P. E.","AVENIDA DA REPÚBLICA, 61",LISBOA,1050-189,PORTUGAL
TELGE INKÖP AB,BOX 633,SÖDERTÄLJE,15127,SWEDEN
АЕЦ КОЗЛОДУЙ ЕАД,ПЛОЩАДКА АЕЦ КОЗЛОДУЙ,ГР. КОЗЛОДУЙ,3321,BULGARIA
INSTITUTUL ONCOLOGIC PROF. DR. I. CHIRICUTA CLUJ-NAPOCA,"STRADA: REPUBLICII, NR. 34-36",CLUJ-NAPOCA,400015,ROMANIA
SAMODZIELNY PUBLICZNY SZPITAL KLINICZNY NR 1 W LUBLINIE,UL. STASZICA 16,LUBLIN,20-081,POLAND
AUTOBAHN GMBH DES BUNDES - NL OST,MAGDEBURGER STRAßE 51,HALLE (SAALE),6112,GERMANY
BAYERISCHE STAATSFORSTEN AÖR,TILLYSTRAßE 2,REGENSBURG,93053,GERMANY
FAKULTNÍ NEMOCNICE BULOVKA,BUDÍNOVA 67/2,PRAHA,18000,CZECH REPUBLIC
FMV,HUVUDKONTOR BANÉRGATAN 62,STOCKHOLM,115 88,SWEDEN
"MAX-PLANCK-GESELLSCHAFT , GV-BAUABTEILUNG",HOFGARTENSTRAßE 8,MÜNCHEN,80539,GERMANY
PGE GÓRNICTWO I ENERGETYKA KONWENCJONALNA S.A.,UL. WĘGLOWA 5,BEŁCHATÓW,97-400,POLAND
"INSTYTUT CHEMII BIOORGANICZNEJ POLSKIEJ AKADEMII NAUK, POZNAŃSKIE CENTRUM SUPERKOMPUTEROWO-SIECIOWE",UL. JANA PAWŁA II 10,POZNAŃ,61-139,POLAND
ОБЩИНА БЛАГОЕВГРАД,ПЛ. ГЕОРГИ ИЗМИРЛИЕВ-МАКЕДОНЧЕТО № 1,ГР. БЛАГОЕВГРАД,2700,BULGARIA
LAND SCHLESWIG-HOLSTEIN ENDVERTRETEN DURCH GEBÄUDEMANAGEMENT SCHLESWIG-HOLSTEIN AÖR,SCHILLSTRAßE 1-3,LÜBECK,23566,GERMANY
PAŃSTWOWE GOSPODARSTWO WODNE WODY POLSKIE,UL. ŻELAZNA 59 A,WARSZAWA,00-848,POLAND
PRIEŠGAISRINĖS APSAUGOS IR GELBĖJIMO DEPARTAMENTAS PRIE VIDAUS REIKALŲ MINISTERIJOS,"ŠVITRIGAILOS G. 18, VILNIUS",VILNIUS,3223,LITHUANIA
SZPITAL SPECJALISTYCZNY IM. LUDWIKA RYDYGIERA W KRAKOWIE SP. Z O.O.,OS. ZŁOTEJ JESIENI 1,KRAKÓW,31-826,POLAND
UNIVERZITETNI KLINIČNI CENTER LJUBLJANA,ZALOŠKA CESTA 2,LJUBLJANA,1000,SLOVENIA
ОБЩИНА БЛАГОЕВГРАД,ПЛ. ГЕОРГИ ИЗМИРЛИЕВ-МАКЕДОНЧЕТО № 1,ГР.БЛАГОЕВГРАД,2700,BULGARIA
UNIWERSYTET WARSZAWSKI,UL. KRAKOWSKIE PRZEDMIEŚCIE 26/28,WARSZAWA,00-927,POLAND
"CONSEJERO DELEGADO DE INGENIERÍA DE SISTEMAS PARA LA DEFENSA DE ESPAÑA S.A., S.M.E. Y M.P.","BEATRIZ DE BOBADILLA, 3",MADRID,28040,SPAIN
"HELSINGIN KAUPUNKI, KAUPUNKIYMPÄRISTÖN TOIMIALA",PL 58208,HELSINGIN KAUPUNKI,99,FINLAND
NTNU,NTNU,TRONDHEIM,7491,NORWAY
PARIS HABITAT - OPH,21 BIS RUE CLAUDE BERNARD,PARIS,75253,FRANCE
DRUŽBA ZA AVTOCESTE V REPUBLIKI SLOVENIJI D.D.,ULICA XIV. DIVIZIJE 4,CELJE,3000,SLOVENIA
HRVATSKE AUTOCESTE D.O.O.,ŠIROLINA 4,ZAGREB,10000,CROATIA
PAS DE CALAIS HABITAT,4 AV DES DROITS DE L'HOMME,ARRAS,62000,FRANCE
UNIWERSYTECKI SZPITAL DZIECIĘCY W KRAKOWIE,UL. WIELICKA 265,KRAKÓW,30-663,POLAND
CENTRAL PROCUREMENT AND SUPPLIES UNIT MFH,UB002 INDUSTRIAL ESTATE,SAN GWANN,SGN 3000,MALTA
IARNRÓD EIREANN-IRISH RAIL,"CONNOLLY STATION,",DUBLIN,DUBLIN,IRELAND
LANDKREIS ROSENHEIM - KREISEIGENER HOCHBAU,WITTELSBACHERSTR. 53,ROSENHEIM,83022,GERMANY
UMEÅ KOMMUN,UPPHANDLINGSBYRÅN,UMEÅ,901 84,SWEDEN
VIEŠOJI ĮSTAIGA LIETUVOS SVEIKATOS MOKSLŲ UNIVERSITETO KAUNO LIGONINĖ,JOSVAINIŲ G. 2,KAUNAS,47144,LITHUANIA
BRANDENBURGISCHER LANDESBETRIEB FÜR LIEGENSCHAFTEN UND BAUEN (BLB) - ZENTRALE VERGABESTELLE,AN DER WACHE 2,ZOSSEN,15806,GERMANY
INFRAESTRUTURAS DE PORTUGAL S.A.,"PRAÇA DA PORTAGEM, ALMADA",ALMADA,2809-013,PORTUGAL
JĒKABPILS NOVADA PAŠVALDĪBA,BRĪVĪBAS IELA 120,JĒKABPILS,LV-5201,LATVIA
LOGISTIK ZENTRUM NIEDERSACHSEN LANDESBETRIEB - AUßENSTELLE HANNOVER,PODBIELSKISTRAßE 166,HANNOVER,30177,GERMANY
"AMW TOWARZYSTWO BUDOWNICWA SPOŁECZNEGO ""KWATERA"" SP. Z O.O.",UL.STAROŚCIŃSKA 1,WARSZAWA,02-516,POLAND
GÓRNOŚLĄSKIE CENTRUM MEDYCZNE IM. PROF. LESZKA GIECA ŚLĄSKIEGO UNIWERSYTETU MEDYCZNEGO W KATOWICACH,UL. ZIOŁOWA 45-47,KATOWICE,40–635,POLAND
MÉTROPOLE NICE CÔTE D'AZUR,POUR LE COMPTE DE LA VILLE DE NICE 5 RUE DE L'HÔTEL DE VILLE,NICE CEDEX 4,6364,FRANCE
SZPITAL UNIWERSYTECKI IM. K.MARCINKOWSKIEGO W ZIELONEJ GÓRZE SP. Z O.O.,UL. ZYTY 26,ZIELONA GÓRA,65-046,POLAND
CENTRUM ZASOBÓW CYBERPRZESTRZENI SIŁ ZBROJNYCH,UL. ŻWIRKI I WIGURY 9/13,WARSZAWA,00-909,POLAND
DANISH MINISTRY OF DEFENCE ACQUISITION AND LOGISTICS ORGANISATION,LAUTRUPBJERG 1-5,BALLERUP,2750,DENMARK
ŚLĄSKIE CENTRUM CHORÓB SERCA W ZABRZU,M.C. SKŁODOWSKIEJ 9,ZABRZE,41-800,POLAND
VĮ LIETUVOS AUTOMOBILIŲ KELIŲ DIREKCIJA,J. BASANAVIČIAUS G. 36,VILNIUS,3109,LITHUANIA
BUNDESDRUCKEREI GMBH,KOMMANDANTENSTRAßE 18,BERLIN,10969,GERMANY
KRÁLOVÉHRADECKÝ KRAJ,PIVOVARSKÉ NÁMĚSTÍ 1245/2,HRADEC KRÁLOVÉ,50003,CZECH REPUBLIC
DEPARTEMENT DE LA GIRONDE,"ESPLANADE CHARLES DE GAULLE, CS 71223",BORDEAUX,33074,FRANCE
PGE ENERGIA CIEPŁA S.A.,UL. ZŁOTA 59,WARSZAWA,00-120,POLAND
VŠEOBECNÁ FAKULTNÍ NEMOCNICE V PRAZE,U NEMOCNICE 499/2,PRAHA,12800,CZECH REPUBLIC
INFORMATIONSTECHNIKZENTRUM BUND (ITZBUND),BERNKASTELER STRAßE 8,BONN,53175,GERMANY
NARODOWY INSTYTUT ONKOLOGII IM. MARII SKŁODOWSKIEJ-CURIE-PAŃSTWOWY INSTYTUT BADAWCZY,"UL. W. K. ROENTGENA 5. ADRES DO KORESPONDENCJI: UL. WAWELSKA 15B, 02-034 WARSZAWA",WARSZAWA,02-781,POLAND
COPERNICUS PODMIOT LECZNICZY SPÓŁKA Z OGRANICZONĄ ODPOWIEDZIALNOŚCIĄ,AL. JANA PAWŁA II 50,GDAŃSK,80-462,POLAND
FRAUNHOFER-GESELLSCHAFT ZUR FÖRDERUNG DER ANGEWANDTEN FORSCHUNG E.V. - EINKAUF B12 - VERGABESTELLE BAU,HANSASTRAßE 27C,MÜNCHEN,80686,GERMANY
MÜNCHEN KLINIK GGMBH,THALKIRCHNER STRAßE 48,MÜNCHEN,80337,GERMANY
SAMODZIELNY PUBLICZNY ZAKŁAD OPIEKI ZDROWOTNEJ CENTRALNY SZPITAL KLINICZNY UNIWERSYTETU MEDYCZNEGO W ŁODZI,POMORSKA 251,ŁÓDŹ,92-213,POLAND
UNIVERSITÄTSKLINIKUM BONN AÖR,VENUSBERG-CAMPUS 1,BONN,53127,GERMANY
CHARITÉ UNIVERSITÄTSMEDIZIN BERLIN,AUGUSTENBURGER PLATZ 1,BERLIN,13353,GERMANY
EDUCATION PROCUREMENT SERVICE (EPS),UNIVERSITY OF LIMERICK,CASTLETROY,CO.LIMERICK,IRELAND
"METRO DE MADRID, SOCIEDAD ANÓNIMA","AVENIDA DE ASTURIAS, 4",MADRID,28029,SPAIN
SERVICIO ANDALUZ DE SALUD. HOSPITAL UNIVERSITARIO REINA SOFÍA,"AVDA. MENÉNDEZ PIDAL, S/N",CÓRDOBA,14004,SPAIN
"SPITALUL UNIVERSITAR DE URGENTA MILITAR CENTRAL ""DR. CAROL DAVILA""","STRADA: VULCĂNESCU MIRCEA, NR. 88",BUCURESTI,10825,ROMANIA
"UNIVERSITATEA ""ALEXANDRU IOAN CUZA"" IASI","STRADA: CAROL I, NR. 11",IASI,700506,ROMANIA
UNIWERSYTET WARMIŃSKO-MAZURSKI W OLSZTYNIE,UL. OCZAPOWSKIEGO 2,OLSZTYN,10 - 719,POLAND
МИНИСТЕРСТВО НА ОТБРАНАТА,"УЛ. ""ДЯКОН ИГНАТИЙ"" №3",СОФИЯ,1092,BULGARIA
COMMUNE DE CANNES,"PLACE CORNUT GENTILLE, CS 30140",CANNES,6406,FRANCE
FAKULTNÍ NEMOCNICE OLOMOUC,ZDRAVOTNÍKŮ 248/7,OLOMOUC,77900,CZECH REPUBLIC
GEMEINNÜTZIGE SALZBURGER LANDESKLINIKEN BETRIEBSGESELLSCHAFT MBH,MÜLLNER HAUPTSTR. 48,SALZBURG,5020,AUSTRIA
LIETUVOS SVEIKATOS MOKSLŲ UNIVERSITETAS,A. MICKEVIČIAUS G. 9,KAUNAS,44307,LITHUANIA
"SIA ""ZIEMEĻKURZEMES REĢIONĀLĀ SLIMNĪCA""",INŽENIERU IELA 60,VENTSPILS,LV-3601,LATVIA
SPRINKENHOF GMBH,BURCHARDSTRAßE 8,HAMBURG,20095,GERMANY
BUNDESGESELLSCHAFT FÜR ENDLAGERUNG MBH (BGE),ESCHENSTR. 55,PEINE,31224,GERMANY
BW BEKLEIDUNGSMANAGEMENT GMBH,EDMUND-RUMPLER-STRAßE 8-10,KÖLN,51149,GERMANY
CCI DE CORSE,RUE ADOLPHE LANDRY,BASTIA,20200,FRANCE
DEGES DEUTSCHE EINHEIT FERNSTRAßENPLANUNGS- UND -BAU GMBH,ZIMMERSTR. 54,BERLIN,10117,GERMANY
"LANDESHAUPTSTADT DÜSSELDORF, DER OBERBÜRGERMEISTER, RECHTSAMT, ZENTRALE VERGABESTELLE",WILLI-BECKER-ALLEE 10,DÜSSELDORF,40227,GERMANY
LE MANS MÉTROPOLE - COMMUNAUTÉ URBAINE,"PÔLE MARCHÉS ET ACHATS PUBLICS, CS40010- 16 AVENUE FRANÇOIS MITTERRAND, LE CONDORCET",LE MANS,72039,FRANCE
OPERATOR GAZOCIĄGÓW PRZESYŁOWYCH GAZ-SYSTEM S.A.,UL. MSZCZONOWSKA 4,WARSZAWA,02-337,POLAND
SAMODZIELNY PUBLICZNY SZPITAL KLINICZNY NR 2 PUM W SZCZECINIE,AL.POWSTAŃCÓW WIELKOPOLSKICH 72,SZCZECIN,70-111,POLAND
ŚLĄSKI UNIWERSYTET MEDYCZNY W KATOWICACH,UL. PONIATOWSKIEGO 15,KATOWICE,40-055,POLAND
SPITALUL JUDETEAN RESITA,"STRADA: FAGARASULUI, NR. 18",RESITA,320210,ROMANIA
SZPITAL KLINICZNY IM. KS. ANNY MAZOWIECKIEJ,UL.KAROWA 2,WARSZAWA,00-315,POLAND
TARTU ÜLIKOOL,ÜLIKOOLI TN 18,TARTU LINN,50090,ESTONIA
DAUGAVPILS PILSĒTAS PAŠVALDĪBA,"KR.VALDEMĀRA IELĀ 1, DAUGAVPILS, LV - 5400",DAUGAVPILS,LV-5400,LATVIA
UNIWERSYTET ROLNICZY IM. HUGONA KOŁŁĄTAJA W KRAKOWIE,AL. MICKIEWICZA 21,KRAKÓW,31-120,POLAND
ZARZĄD ZASOBU KOMUNALNEGO JEDNOSTKA BUDŻETOWA GMINY WROCŁAW,UL. ŚW. ELŻBIETY 3,WROCŁAW,50-111,POLAND
ANAS S.P.A,VIA MONZAMBANO 10,ROMA,185,ITALY
CONSEIL DÉPARTEMENTAL DU NORD,"HÔTEL DU DÉPARTEMENT, 51 RUE GUSTAVE DELORY",LILLE,59047,FRANCE
"KREISAUSSCHUSS MAIN-TAUNUS-KREIS, HOCHBAU- UND LIEGENSCHAFTSAMT",AM KREISHAUS 1-5,HOFHEIM AM TAUNUS,65719,GERMANY
LUNDS UNIVERSITET,BOX 117,LUND,221 00,SWEDEN
REGION HALLAND,BOX 517,HALMSTAD,301 80,SWEDEN
UNIVERSITATEA POLITEHNICA DIN BUCURESTI,"STRADA: INDEPENDENŢEI, NR. 313",BUCURESTI,60042,ROMANIA
VESTLAND FYLKESKOMMUNE,POSTBOKS 7900,BERGEN,5020,NORWAY
ZESPÓŁ OPIEKI ZDROWOTNEJ W DĘBICY,UL. KRAKOWSKA 91,DĘBICA,39-200,POLAND
GÖTEBORGS STAD INKÖP OCH UPPHANDLING,BOX 1111,GÖTEBORG,40523,SWEDEN
GÓRNOŚLĄSKIE CENTRUM MEDYCZNE IM. PROF. LESZKA GIECA ŚLĄSKIEGO UNIWERSYTETU MEDYCZNEGO W KATOWICACH,UL. ZIOŁOWA 45/47,KATOWICE,40–635,POLAND
TRANSPORDIAMET,VALGE TN 4,TALLINN,11413,ESTONIA
AKCINĖ BENDROVĖ „KAUNO ENERGIJA“,RAUDONDVARIO PL. 84,KAUNAS,47179,LITHUANIA
STAATLICHES BAUAMT AUGSBURG,HOLBEINSTRAßE 10,AUGSBURG,86150,GERMANY
ОБЩИНА РУСЕ,ПЛ. СВОБОДА №.6,ГР.РУСЕ,7000,BULGARIA
AKTSIASELTS IDA-TALLINNA KESKHAIGLA,RAVI TN 18,TALLINN,10138,ESTONIA
FAKULTNÍ NEMOCNICE PLZEŇ,EDVARDA BENEŠE 1128/13,PLZEŇ,30100,CZECH REPUBLIC
"LANDESHAUPTSTADT STUTTGART, HAUPT- UND PERSONALAMT, ABT. ALLGEMEINER SERVICE, ZENTRALER EINKAUF",EBERHARDSTR. 61,STUTTGART,70173,GERMANY
STEIERMÄRKISCHE KRANKENANSTALTENGESELLSCHAFT M.B.H.,STIFTINGTALSTRAßE -6,GRAZ,8010,AUSTRIA
UNIVERSITÄTSKLINIKUM MÜNSTER,"ALBERT-SCHWEITZER-CAMPUS 1, GEB. D5",MÜNSTER,48149,GERMANY
UNIWERSYTECKIE CENTRUM KLINICZNE IM. PROF. K. GIBIŃSKIEGO ŚLĄSKIEGO UNIWERSYTETU MEDYCZNEGO W KATOWICACH,UL.CEGLANA 35,KATOWICE,40-514,POLAND
AARHUS UNIVERSITET,NORDRE RINGGADE 1,AARHUS C,8000,DENMARK
BERLINER WASSERBETRIEBE,NEUE JÜDENSTR. 2,BERLIN,10179,GERMANY
"PAŃSTWOWE GOSPODARSTWO WODNE WODY POLSKIE, UL. ŻELAZNA 59A, 00-848 WARSZAWA - REGIONALNY ZARZĄD GOSPODARKI WODNEJ W RZESZOWIE",UL. HANASIEWICZA 17 B,RZESZÓW,35-103,POLAND
"SIA ""RĪGAS ŪDENS""",ZIGFRĪDA ANNAS MEIEROVICA BULVĀRIS 1,RĪGA,LV - 1495,LATVIA
VOLÁNBUSZ KÖZLEKEDÉSI ZÁRTKÖRŰEN MŰKÖDŐ RÉSZVÉNYTÁRSASÁG,ÜLLŐI ÚT 131.,BUDAPEST,1091,HUNGARY
МИНИСТЕРСТВО НА ВЪТРЕШНИТЕ РАБОТИ,УЛ. 6-ТИ СЕПТЕМВРИ №29,СОФИЯ,1000,BULGARIA
BERLINER WASSERBETRIEBE,CICEROSTR. 28,BERLIN,10709,GERMANY
ENEFIT POWER AS,KESKTERRITOORIUMI/1,NARVA-JÕESUU LINN,40107,ESTONIA
POLISMYNDIGHETEN,POLISMYNDIGHETEN BOX 122,STOCKHOLM,102 26,SWEDEN
POLIZEIVERWALTUNGSAMT LOGISTIKZENTRUM,NORDSTRAßE 3-5,MARKKLEEBERG,4416,GERMANY
WOJEWÓDZKI SZPITAL SPECJALISTYCZNY NR 5 IM. ŚW BARBARY W SOSNOWCU,PLAC MEDYKÓW 1,SOSNOWIEC,41-200,POLAND
"BUNDESAMT FÜR INFRASTRUKTUR, UMWELTSCHUTZ UND DIENSTLEISTUNGEN DER BUNDESWEHR",FONTAINENGRABEN 200,BONN,53123,GERMANY
ČESKÁ ZEMĚDĚLSKÁ UNIVERZITA V PRAZE,KAMÝCKÁ 129,PRAHA - SUCHDOL,16500,CZECH REPUBLIC
DISTRIBUȚIE ENERGIE ELECTRICĂ ROMANIA S.A.,"STRADA: MĂCELARU ILIE, NR. 28A",CLUJ-NAPOCA,400380,ROMANIA
KOMENDA GŁÓWNA POLICJI,UL. PUŁAWSKA 148/150,WARSZAWA,02-624,POLAND
SEMMELWEIS EGYETEM,ÜLLŐI ÚT 26.,BUDAPEST,1085,HUNGARY
SPITAL CLINIC JUDETEAN DE URGENTA ARAD,"STRADA: SPITALULUI, NR. 1",ARAD,310031,ROMANIA
SPÓŁKA RESTRUKTURYZACJI KOPALŃ S.A.,UL. STRZELCÓW BYTOMSKICH 207,BYTOM,41-914,POLAND
BUNDESSTADT BONN - REFERAT VERGABEDIENSTE,BERTHA-VON-SUTTNER-PLATZ 2-4,BONN,53111,GERMANY
"DOPRAVNÍ PODNIK HL. M. PRAHY, AKCIOVÁ SPOLEČNOST",SOKOLOVSKÁ 42/217,PRAHA,19000,CZECH REPUBLIC
"INFRABEL SA - PROCUREMENT, DIVISION I-FBA.51",PLACE MARCEL BROODTHAERS 2,BRUXELLES,1060,BELGIUM
SIA HABITAT,"67 AVENUE DES POTIERS, CS80649",DOUAI,59506,FRANCE
STAATLICHES HOCHBAUAMT SCHWÄBISCH HALL,DOLANALLEE 7,SCHWÄBISCH HALL,74523,GERMANY
SZPITAL UNIWERSYTECKI NR 2 IM. DR JANA BIZIELA W BYDGOSZCZY,UL.UJEJSKIEGO 75,BYDGOSZCZ,85-168,POLAND
BAU- UND LIEGENSCHAFTSBETRIEB NRW KÖLN,DOMSTR. 55-73,KÖLN,50668,GERMANY
IN.VA. S.P.A. - CENTRALE UNICA DI COMMITTENZA REGIONALE PER SERVIZI E FORNITURE,"LOC. L'ÎLE-BLONDE, 5",BRISSOGNE (AO),11020,ITALY
KAUNO MIESTO SAVIVALDYBĖS ADMINISTRACIJA,LAISVĖS AL. 96,KAUNAS,44251,LITHUANIA
"NEMOCNICE PARDUBICKÉHO KRAJE, A.S.",KYJEVSKÁ 44,PARDUBICE,53203,CZECH REPUBLIC
"SPITALUL CLINIC DE URGENTA PENTRU COPII ""GRIGORE ALEXANDRESCU""","STRADA IANCU DE HUNEDOARA, NR. 30-32",BUCURESTI,11743,ROMANIA
STADT GÜTERSLOH,BERLINER STRAßE 70,GÜTERSLOH,33330,GERMANY
AOK PLUS - DIE GESUNDHEITSKASSE FÜR SACHSEN UND THÜRINGEN,AUGUSTINERSTRAßE 38,ERFURT,99084,GERMANY
DEPARTEMENT DE L ISERE,7 RUE FANTIN LATOUR,GRENOBLE,38022,FRANCE
FORSVARSBYGG,GREV WEDELS PLASS 5,OSLO,151,NORWAY
GEMEENTE BREDA,CLAUDIUS PRINSENLAAN 10,BREDA,4811DJ,NETHERLANDS
SPITALUL CLINIC MUNICIPAL CLUJ-NAPOCA,"STRADA: TABACARILOR, NR. 11",CLUJ-NAPOCA,400139,ROMANIA
VERMÖGEN UND BAU BADEN-WÜRTTEMBERG AMT KONSTANZ,MAINAUSTRAßE 211,KONSTANZ,78464,GERMANY
VILNIAUS UNIVERSITETAS,UNIVERSITETO G. 3,VILNIUS,1513,LITHUANIA
PGNIG TERMIKA SA,UL. MODLIŃSKA 15,WARSZAWA,03-216,POLAND
REGION UPPSALA,STORGATAN 27,UPPSALA,751 85,SWEDEN
"STADT HALLE (SAALE), FACHBEREICH RECHT, TEAM VERGABE BAULEISTUNGEN/BAUPLANUNGEN",MARKTPLATZ 1,HALLE (SAALE),6108,GERMANY
AUTOBAHN GMBH DES BUNDES - NL NORDWEST,GRADESTRAßE 18,HANNOVER,30163,GERMANY
DIRECCIÓN ECONÓMICO-FINANCIERA DE ENAIRE,"AVDA. DE ARAGÓN, 330",MADRID,28022,SPAIN
GRENOBLE-ALPES METROPOLE,"LE FORUM - CS 50053, 3 RUE MALAKOFF",GRENOBLE,38031,FRANCE
JEFATURA DE ASUNTOS ECONÓMICOS DE LA GUARDIA CIVIL,CALLE GUZMÁN EL BUENO 110.,MADRID,28003,SPAIN
LANDKREIS VECHTA,RAVENSBERGER STR. 20,VECHTA,49377,GERMANY
LAND NIEDERSACHEN VERTRETEN DURCH DAS STAATLICHE BAUMANAGEMENT NIEDERSACHSEN,SCHLOß,BAD IBURG,49186,GERMANY
"STADT KARLSRUHE, AMT FÜR HOCHBAU UND GEBÄUDEWIRTSCHAFT",ZÄHRINGERSTR. 61,KARLSRUHE,76133,GERMANY
STADT NÜRNBERG - HOCHBAUAMT,MARIENTORGRABEN 11,NÜRNBERG,90402,GERMANY
WOJEWÓDZKI SZPITAL SPECJALISTYCZNY W LEGNICY,"59-220 LEGNICA, UL.IWASZKIEWICZA 5",LEGNICA,59-220,POLAND
GERENCIA SECTOR SANITARIO DE ZARAGOZA 2,"PASEO ISABEL LA CATÓLICA, 1-3",ZARAGOZA,50009,SPAIN
KRAKOWSKI SZPITAL SPECJALISTYCZNY IM. JANA PAWŁA II,UL. PRĄDNICKA 80,KRAKÓW,31-202,POLAND
TROMSØ KOMMUNE,"RÅDHUSET, POSTBOKS 6900 LANGNES",TROMSØ,9299,NORWAY
WIBAU GESELLSCHAFT MBH,KONRAD-ADENAUER-RING 11,WIESBADEN,65187,GERMANY
BANK GOSPODARSTWA KRAJOWEGO,AL. JEROZOLIMSKIE 7,WARSZAWA,00-955,POLAND
DIE AUTOBAHN GMBH DES BUNDES,HEIDESTRAßE 15,BERLIN,10557,GERMANY
IKK CLASSIC,,DRESDEN,1099,GERMANY
MÉTROPOLE DE LYON,"20 RUE DU LAC, CS 33569",LYON,69505,FRANCE
MIASTO STOŁECZNE WARSZAWA,PLAC BANKOWY 3/5,WARSZAWA,00-950,POLAND
RAI - RADIOTELEVISIONE ITALIANA S.P.A.,"VIALE GIUSEPPE MAZZINI, 14",ROMA,195,ITALY
VERMÖGEN UND BAU BADEN-WÜRTTEMBERG AMT TÜBINGEN,SCHNARRENBERGSTRAßE 1,TÜBINGEN,72076,GERMANY
ОБЩИНА ПЕРНИК,ПЛ. СВ.ИВАН РИЛСКИ 1 А,ГР.ПЕРНИК,2300,BULGARIA
AOK BAYERN - DIE GESUNDHEITSKASSE,CARL-WERY-STRAßE 28,81739 MÜNCHEN,,GERMANY
COMPANIA NATIONALA DE ADMINISTRARE A INFRASTRUCTURII RUTIERE S.A.,"STRADA: GOLESCU DINICU, NR. 38",BUCURESTI,10873,ROMANIA
SPITALUL JUDETEAN DE URGENTA ZALAU,"STRADA: BĂRNUŢIU SIMION, NR. 67",ZALAU,450129,ROMANIA
WOHN + STADTBAU WOHNUNGSUNTERNEHMEN DER STADT MÜNSTER GMBH,STEINFURTER STR. 60,MÜNSTER,48149,GERMANY
WOJEWÓDZKI SZPITAL SPECJALISTYCZNY IM. NAJŚWIĘTSZEJ MARYI PANNY,UL. BIALSKA 104/118,CZĘSTOCHOWA,42-200,POLAND
CONSEIL DÉPARTEMENTAL HAUTE-GARONNE,"DIRECTION DE LA COMMANDE PUBLIQUE, 1 BOULEVARD DE LA MARQUETTE",TOULOUSE,31090,FRANCE
DEBRECENI EGYETEM,EGYETEM TÉR 1.,DEBRECEN,4032,HUNGARY
KREISVERWALTUNG MAINZ-BINGEN,GEORG-RÜCKERT-STR. 11,INGELHEIM AM RHEIN,55218,GERMANY
"LITGRID, AB",KARLO GUSTAVO EMILIO MANERHEIMO G. 8,VILNIUS,5131,LITHUANIA
LWL - BAU- UND LIEGENSCHAFTSBETRIEB (LWL-BLB),WARENDORFER STRAßE. 24,MÜNSTER,48145,GERMANY
PUOLUSTUSVOIMIEN LOGISTIIKKALAITOS,HATANPÄÄN VALTATIE 30,TAMPERE,33541,FINLAND
"RIJKSWATERSTAAT PROGRAMMA'S, PROJECTEN EN ONDERHOUD",GRIFFIOENLAAN 2,UTRECHT,3526 LA,NETHERLANDS
SAMODZIELNY PUBLICZNY ZOZ WOJEWÓDZKI SZPITAL ZESPOLONY IM. JĘDRZEJA ŚNIADECKIEGO W BIAŁYMSTOKU,UL. M. SKŁODOWSKIEJ-CURIE 26,BIAŁYSTOK,15-950,POLAND
STADT NÜRNBERG VERTRETEN DURCH WBG KOMMUNAL GMBH,BEUTHENER STR. 41,NÜRNBERG,90471,GERMANY
ÚŘAD PRÁCE ČESKÉ REPUBLIKY,DOBROVSKÉHO 1278/25,PRAHA,17000,CZECH REPUBLIC
VERGABE UND BESCHAFFUNGSZENTRUM DORTMUND,VIKTORIASTRAßE 15,DORTMUND,44135,GERMANY
VIEŠOJI ĮSTAIGA RESPUBLIKINĖ ŠIAULIŲ LIGONINĖ,"V. KUDIRKOS G. 99, LT-76231 ŠIAULIAI",ŠIAULIAI,76231,LITHUANIA
МИНИСТЕРСТВО НА ЗДРАВЕОПАЗВАНЕТО,"ПЛ. ""СВЕТА НЕДЕЛЯ"" №.5",ГР.СОФИЯ,1000,BULGARIA
BWI GMBH,DACHAUER STR. 128,MÜNCHEN,80637,GERMANY
DEUTSCHE BAHN AG KONZERNLEITUNG (BUKR 10),POTSDAMER PLATZ 2,BERLIN,10785,GERMANY
DRSID LYON,BP 97423,LYON CEDEX 07,69347,FRANCE
FRIEDRICH-SCHILLER-UNIVERSITÄT JENA,FÜRSTENGRABEN 1,JENA,7743,GERMANY
KLINIKUM PASSAU,INNSTRAßE 76,PASSAU,94032,GERMANY
"MINISTERIE VAN ECONOMISCHE ZAKEN EN KLIMAAT, RIJKSDIENST VOOR ONDERNEMEND NEDERLAND (RVO)",PRINSES BEATRIXLAAN 2,DEN HAAG,2595 AL,NETHERLANDS
SPITALUL CLINIC JUDETEAN DE URGENTA TARGU.MURES,"STRADA: MARINESCU GHEORGHE, NR. 50",TARGU MURES,540136,ROMANIA
STADTREINIGUNG HAMBURG AÖR,BULLERDEICH 19,HAMBURG,20537,GERMANY
SUBSECRETARÍA DE LA CONSELLERÍA DE SANIDAD Y SALUD PÚBLICA,"MICER MASCÓ, 31-33",VALENCIA,46010,SPAIN
TECHNISCHE DIENSTEN KU LEUVEN,W. DE CROYLAAN 60A BUS 5570,HEVERLEE,3001,BELGIUM
UAB „IGNITIS GRUPĖS PASLAUGŲ CENTRAS“,LAISVĖS PR. 10,VILNIUS,4215,LITHUANIA
UNIVERSITATEA DIN BUCURESTI,"STRADA: PANDURI, NR. 90",BUCURESTI,50663,ROMANIA
AUTOBAHN GMBH DES BUNDES - NL SÜDWEST,AUGSBURGER STRAßE 748,STUTTGART,70329,GERMANY
BAU- UND LIEGENSCHAFTSBETRIEB NRW DÜSSELDORF,EDUARD-SCHULTE-STRAßE 1,DÜSSELDORF,40225,GERMANY
COMUNE DI GENOVA - STAZIONE UNICA APPALTANTE,VIA GARIBALDI 9,GENOVA,16124,ITALY
"JASTRZĘBSKA SPÓŁKA WĘGLOWA S.A. Z SIEDZIBĄ W JASTRZĘBIU ZDROJU, ZAKŁAD WSPARCIA PRODUKCJI",UL. TOWAROWA 1,JASTRZĘBIE-ZDRÓJ,44-330,POLAND
"MINISTRSTVO ZA INFRASTRUKTURO, DIREKCIJA REPUBLIKE SLOVENIJE ZA INFRASTRUKTURO",TRŽAŠKA CESTA 19,LJUBLJANA,1000,SLOVENIA
SAMODZIELNY PUBLICZNY WOJEWÓDZKI SZPITAL ZESPOLONY W SZCZECINIE,UL. ARKOŃSKA 4,SZCZECIN,71-455,POLAND
"STADT BIELEFELD - AMT FÜR ORGANISATION, IT UND ZENTRALE LEISTUNGEN",NIEDERWALL 23,BIELEFELD,33602,GERMANY
"TELEWIZJA POLSKA S.A. Z SIEDZIBĄ W WARSZAWIE, WPISANA DO REJESTRU PRZEDSIĘBIORCÓW KRAJOWEGO REJESTRU SĄDOWEGO PROWADZONEGO PRZEZ SĄD REJONOWY DLA M.ST. WARSZAWY W WARSZAWIE, XIII WYDZIAŁ GOSP. KRS POD NR KRS: 0000100679, NIP: 5210412987, REGON: 010418973",UL. J.P. WORONICZA 17,WARSZAWA,00-999,POLAND
GEMEENTE UTRECHT,STADSPLATEAU 1,UTRECHT,3521 AZ,NETHERLANDS
KOMENDA WOJEWÓDZKA POLICJI W KRAKOWIE,UL. MOGILSKA 109 POKÓJ 101B,KRAKÓW,31-571,POLAND
RIIGI KINNISVARA AKTSIASELTS,TARTU MNT 85,TALLINN,10115,ESTONIA
UAB „IGNITIS GRUPĖS PASLAUGŲ CENTRAS“,LAISVĖS PR. 10,VILNIUS,LT-04215,LITHUANIA
AKTSIASELTS LÄÄNE-TALLINNA KESKHAIGLA,PALDISKI MNT 68,TALLINN,10617,ESTONIA
INSTITUT RUĐER BOŠKOVIĆ,BIJENIČKA CESTA 54,ZAGREB,10000,CROATIA
"LESY ČESKÉ REPUBLIKY, S.P.","PŘEMYSLOVA 1106/19, NOVÝ HRADEC KRÁLOVÉ",HRADEC KRÁLOVÉ,50008,CZECH REPUBLIC
PÉCSI TUDOMÁNYEGYETEM,VASVÁRI PÁL UTCA 4.,PÉCS,7622,HUNGARY
BANCO DE ESPAÑA,"ALCALÁ, 48",MADRID,28014,SPAIN
FAKULTNÍ THOMAYEROVA NEMOCNICE,VÍDEŇSKÁ 800,PRAHA 4,14000,CZECH REPUBLIC
"JASTRZĘBSKA SPÓŁKA WĘGLOWA S.A. Z SIEDZIBĄ W JASTRZĘBIU ZDROJU, ZAKŁAD WSPARCIA PRODUKCJI",TOWAROWA 1,JASTRZĘBIE-ZDRÓJ,44-330,POLAND
KOMENDA WOJEWÓDZKA POLICJI WE WROCŁAWIU,UL. PODWALE 31-33,WROCŁAW,50-040,POLAND
"SNTFC ""CFR CALATORI"" S.A.","BULEVARD DINICU GOLESCU, NR. 38",BUCURESTI,10873,ROMANIA
VALSTYBĖS ĮMONĖ IGNALINOS ATOMINĖ ELEKTRINĖ,"ELEKTRINĖS G. 4, K 47, DRŪKŠINIŲ K., VISAGINO SAV.",VISAGINAS,31152,LITHUANIA
VILLE DE MARSEILLE,HÔTEL DE VILLE - QUAI DU PORT,MARSEILLE CEDEX 20,13233,FRANCE
AOK BAYERN - DIE GESUNDHEITSKASSE,CARL-WERY-STRAßE 28,MÜNCHEN,,GERMANY
DIRECCIÓN GENERAL DE LA ENTIDAD PÚBLICA EMPRESARIAL RED.ES,PLAZA MANUEL GÓMEZ MORENO S/N,MADRID,28020,SPAIN
HELSINGBORGS STAD,HELSINGBORGS STAD DROTTNINGGATAN 2,HELSINGBORG,252 21,SWEDEN
JÖNKÖPINGS KOMMUN,STADSKONTORET,JÖNKÖPING,551 89,SWEDEN
PAŃSTWOWE GOSPODARSTWO WODNE WODY POLSKIE-REGIONALNY ZARZĄD GOSPODARKI WODNEJ W LUBLINIE,UL. ŻELAZNA 59A,WARSZAWA,00-848,POLAND
PKP POLSKIE LINIE KOLEJOWE S.A.,UL. TARGOWA 74,WARSZAWA,03-734,POLAND
SERVICIO CÁNTABRO DE SALUD,"AVDA. CARDENAL HERRERA ORIA, S/N",SANTANDER,39011,SPAIN
SPITALUL CLINIC JUDETEAN DE URGENTA TARGU.MURES,"STRADA: MARINESCU GHEORGHE, NR. 50, SECTOR: -, JUDET: MURES",TARGU MURES,540136,ROMANIA
SPITALUL JUDETEAN DE URGENTA BACAU,"STRADA: HARET SPIRU, NR. 2",BACAU,600114,ROMANIA
STAATLICHES BAU- UND LIEGENSCHAFTSAMT NEUBRANDENBURG,NEUSTRELITZER STRAßE 121,NEUBRANDENBURG,17033,GERMANY
STUTTGARTER STRAßENBAHNEN AG,SCHOCKENRIEDSTR. 50,STUTTGART,70565,GERMANY
UM 0929 BUCURESTI,"STRADA: FRANCEZĂ, NR. 48-50",BUCURESTI,30105,ROMANIA
BANCA D'ITALIA,"VIA NAZIONALE, 91",ROMA,184,ITALY
CENTRUM E-ZDROWIA,UL. STANISŁAWA DUBOIS 5A,WARSZAWA,00-184,POLAND
COMMUNE DE TOULOUSE,"DIRECTION DE LA COMMANDE PUBLIQUE, 6 RUE RENÉ LEDUC",TOULOUSE,31505,FRANCE
CONSEIL RÉGIONAL DES PAYS DE LA LOIRE,1 RUE DE LA LOIRE,NANTES CEDEX 9,44966,FRANCE
"GEMEENTE AMSTERDAM, INGENIEURSBUREAU",WEESPERSTRAAT 430,AMSTERDAM,1018 DN,NETHERLANDS
"GERENCIA DE EMAYA, EMPRESA MUNICIPAL D'AIGÜES I CLAVEGUERAM, S.A.","CAMINO DE LOS REYES 400, EDIFICIO CENTRAL DE SON PACS",PALMA,7010,SPAIN
MINISTERSTVO OBRANY SLOVENSKEJ REPUBLIKY,KUTUZOVOVA 8,BRATISLAVA - MESTSKÁ ČASŤ NOVÉ MESTO,83247,SLOVAKIA
"S.E CORREOS Y TELÉGRAFOS, S.A.","CONDE PEÑALVER, 19 BIS",MADRID,28006,SPAIN
"SPITALUL CLINIC JUDETEAN DE URGENTA""SFANTUL APOSTOL ANDREI""","STRADA: BRĂILEI, NR. 177",GALATI,800578,ROMANIA
URZĄD KOMISJI NADZORU FINANSOWEGO,PIĘKNA 20,WARSZAWA,00-549,POLAND
VERMÖGEN UND BAU BADEN-WÜRTTEMBERG AMT MANNHEIM UND HEIDELBERG DIENSTSITZ HEIDELBERG,IM NEUENHEIMER FELD 100,HEIDELBERG,69120,GERMANY
WIELKOPOLSKIE CENTRUM ONKOLOGII,GARBARY 15,POZNAŃ,61-866,POLAND
WOJEWÓDZTWO MAŁOPOLSKIE -URZĄD MARSZAŁKOWSKI WOJEWÓDZTWA MAŁOPOLSKIEGO,UL. BASZTOWA 22,KRAKÓW,31-156,POLAND
FACHSTELLE BESCHAFFUNGSWESEN STADT BERN,BUNDESGASSE 33,BERN,3011,SWITZERLAND
MAZOWIECKI SZPITAL BRÓDNOWSKI SP. Z O.O.,UL. KONDRATOWICZA 8,WARSZAWA,03-242,POLAND
MINISTRSTVO ZA JAVNO UPRAVO,TRŽAŠKA CESTA 21,LJUBLJANA,1000,SLOVENIA
NAUKOWA I AKADEMICKA SIEĆ KOMPUTEROWA - PAŃSTWOWY INSTYTUT BADAWCZY,UL. KOLSKA 12,WARSZAWA,01-045,POLAND
ORLÉANS MÉTROPOLE,"ESPACE SAINT MARC, 5 PLACE DU 6 JUIN 1944, CS 95801",ORLÉANS,45058,FRANCE
"SECRETARÍA GENERAL DE LA CONSEJERÍA DE EDUCACIÓN, CULTURA Y DEPORTES DE LA JUNTA DE COMUNIDADES DE CASTILLA-LA MANCHA","BULEVAR DEL RIO ALBERCHE, S/N",TOLEDO,45071,SPAIN
TRENITALIA S.P.A. - DIREZIONE LOGISTICA INDUSTRIALE,PIAZZA DELLA CROCE ROSSA 1,ROMA,161,ITALY
TRONDHEIM KOMMUNE,ERLING SKAKKES GATE 14,TRONDHEIM,7004,NORWAY
VIKEN FYLKESKOMMUNE,OSCAR PEDERSENS VEI 39,SARPSBORG,1702,NORWAY
BAU- UND LIEGENSCHAFTSBETRIEB NRW DORTMUND,EMIL-FIGGE-STR. 91,DORTMUND,44227,GERMANY
"BAZA DE APROVIZIONARE, GOSPODARIRE SI REPARATII","STRADA: SABARULUI, NR. 1",JILAVA,77120,ROMANIA
CONSEIL REGIONAL HAUTS DE FRANCE,"151, AVENUE DU PRÉSIDENT HOOVER",LILLE,59555,FRANCE
DIRECCIÓN DE ADQUISICIONES DEL MANDO DE APOYO LOGÍSTICO DEL EJÉRCITO DEL AIRE,"ROMERO ROBLEDO, 8",MADRID,28071,SPAIN
ENEA OPERATOR SP. Z O.O.,UL. STRZESZYŃSKA 58,POZNAŃ,60-479,POLAND
"STADT ESSEN, VERTRETEN DURCH DIE GVE GRUNDSTÜCKSVERWALTUNG STADT ESSEN GMBH",ROTTSTRAßE 17,ESSEN,45127,GERMANY
STADT FRANKFURT AM MAIN - AMT FÜR BAU UND IMMOBILIEN,SOLMSSTRAßE 27 - 37,FRANKFURT AM MAIN,60486,GERMANY
VA SYD,BOX 191,MALMÖ,20121,SWEDEN
CEA/GRENOBLE,17 RUE DES MARTYRS,GRENOBLE CEDEX 9,38054,FRANCE
COMMUNE DE TOULON,"AVENUE DE LA RÉPUBLIQUE, CS 71407",TOULON,83056,FRANCE
HAMBURGER HOCHBAHN AG,STEINSTRAßE 20,HAMBURG,20095,GERMANY
MÁV MAGYAR ÁLLAMVASUTAK ZÁRTKÖRŰEN MŰKÖDŐ RÉSZVÉNYTÁRSASÁG,KÖNYVES KÁLMÁN KRT. 54-60.,BUDAPEST,1087,HUNGARY
REGION KALMAR LÄN,SJÖBRINGS VÄG 4A PLAN 2,KALMAR,392 44,SWEDEN
"SERVIÇO DE SAÚDE DA REGIÃO AUTÓNOMA DA MADEIRA, EPERAM (SESARAM, EPERAM)","AVENIDA LUÍS DE CAMÕES, Nº 57",FUNCHAL,9004-514,PORTUGAL
STADT KAUFBEUREN,KAISER-MAX-STRAßE 1,KAUFBEUREN,87600,GERMANY
VIEŠOJI ĮSTAIGA RESPUBLIKINĖ PANEVĖŽIO LIGONINĖ,SMĖLYNĖS G. 25,PANEVĖŽYS,35144,LITHUANIA
VILLE D'ANNECY,ESPLANADE DE L'HÔTEL-DE-VILLE,ANNECY,74011,FRANCE
VILLE D'ANTIBES JUAN-LES-PINS,DIRECTION DE LA COMMANDE PUBLIQUE 11 BOULEVARD CHANCEL BP 2205,ANTIBES CEDEX,6606,FRANCE
ТЕХНИЧЕСКИ УНИВЕРСИТЕТ-ГАБРОВО,УЛ. ХАДЖИ ДИМИТЪР №.4,ГР.ГАБРОВО,5300,BULGARIA
AGENCIA PÚBLICA ANDALUZA DE EDUCACIÓN,"JUDERÍA, EDIFICIO VEGA DEL REY 1",CAMAS,41900,SPAIN
"BUNDESANSTALT FÜR STRAßENWESEN, REFERAT Z2",BRÜDERSTRAßE 53,BERGISCH GLADBACH,51427,GERMANY
CENTRE DE TELECOMUNICACIONS I TECNOLOGIES DE LA INFORMACIÓ DE LA GENERALITAT DE CATALUNYA,"C/ SALVADOR ESPRIU, 45-51",L'HOSPITALET DE LLOBREGAT,E-08908,SPAIN
"ČR - MINISTERSTVO VNITRA, GENERÁLNÍ ŘEDITELSTVÍ HASIČSKÉHO ZÁCHRANNÉHO SBORU",KLOKNEROVA 2295/26,PRAHA 4,148 01,CZECH REPUBLIC
DEUTSCHES ZENTRUM FÜR LUFT- UND RAUMFAHRT E.V. (DLR),LINDER HÖHE,KÖLN,51147,GERMANY
"EMPRESA NACIONAL DE RESIDUOS RADIACTIVOS, S.A., S.M.E. (ENRESA)","EMILIO VARGAS, 7",MADRID,28043,SPAIN
FAKULTNÍ NEMOCNICE V MOTOLE,V ÚVALU 84/1,PRAHA,15000,CZECH REPUBLIC
KØBENHAVNS KOMMUNE - ØKONOMIFORVALTNINGEN,BORUPS ALLÉ 177,KØBENHAVN NV,2400,DENMARK
METROPOLE TOULON-PROVENCE-MEDITERRANEE,"107 BD HENRI FABRE, CS30536",TOULON,83041,FRANCE
SECTOR 4 (PRIMARIA SECTORULUI 4 BUCURESTI),"STRADA: COŞBUC GEORGE, POET, NR. 6-16",BUCURESTI,40532,ROMANIA
STAATLICHES HOCHBAUAMT ULM,GRÜNER HOF 2,ULM,89073,GERMANY
TALLINNA TEHNIKAÜLIKOOL,EHITAJATE TEE 5,TALLINN,19086,ESTONIA
VŠEOBECNÁ FAKULTNÍ NEMOCNICE V PRAZE,U NEMOCNICE 499/2,PRAHA 2,128 08,CZECH REPUBLIC
ОБЩИНА ВАРНА,"БУЛ. ГЕНЕРАЛ КОЛЕВ 92, ЕТ.5",ВАРНА,9000,BULGARIA
CAISSE DES DEPOTS,56 RUE DE LILLE,PARIS,75007,FRANCE
"LANDESAMT FÜR INNERE VERWALTUNG M-V, ABTEILUNG BESCHAFFUNG/DIENSTLEISTUNGEN",LÜBECKER STR. 289,SCHWERIN,19059,GERMANY
SAMODZIELNY PUBLICZNY SZPITAL KLINICZNY NR 4 W LUBLINIE,UL.DR K JACZEWSKIEGO 8,LUBLIN,20-954,POLAND
SIAAP,2 RUE JULES CÉSAR,PARIS,75012,FRANCE
STAATLICHES BAU- UND LIEGENSCHAFTSAMT SCHWERIN,WERDERSTRAßE 4,SCHWERIN,19055,GERMANY
VALSTS SIA NACIONĀLAIS REHABILITĀCIJAS CENTRS VAIVARI,ASARU PROSPEKTS 61,JŪRMALA,LV-2008,LATVIA
VÉDELMI BESZERZÉSI ÜGYNÖKSÉG ZÁRTKÖRŰEN MŰKÖDŐ RÉSZVÉNYTÁRSASÁG,SCHWEIDEL UTCA 2-4.,BUDAPEST,1118,HUNGARY
WISMUT GMBH,JAGDSCHÄNKENSTRAßE 29,CHEMNITZ,D-09117,GERMANY
"CONSEJERÍA DE FAMILIA, JUVENTUD Y POLÍTICA SOCIAL","O`DONNELL, 50",MADRID,28009,SPAIN
DEPARTEMENT DE LA SEINE SAINT DENIS,"HÔTEL DU DÉPARTEMENT, 3 ESPLANADE JEAN MOULIN",BOBIGNY,93000,FRANCE
DIRECCIÓN DEL SERVICIO DE GESTIÓN ECONÓMICA DE LA AGENCIA ESTATAL DE LA ADMINISTRACIÓN TRIBUTARIA,C/ LÉRIDA 32-34,MADRID,28020,SPAIN
ELEKTRILEVI OÜ,VESKIPOSTI TN 2,TALLINN,10138,ESTONIA
FLUGHAFEN MÜNCHEN GMBH,POSTFACH 23 17 55,MÜNCHEN,85326,GERMANY
FREISTAAT BAYERN VERTRETEN DURCH DAS BAYERISCHE LANDESAMT FÜR STEUERN - ZENTRALE VERGABESTELLE -,SOPHIENSTR. 6,MÜNCHEN,80333,GERMANY
GEMEENTE DEN HAAG,SPUI 70,DEN HAAG,2511 BT,NETHERLANDS
JUNTA DE GOBIERNO DEL AYUNTAMIENTO DE MÁLAGA,"AVDA. DE CERVANTES, 4",MÁLAGA,29016,SPAIN
KLINIČKI BOLNIČKI CENTAR RIJEKA,KREŠIMIROVA 42,RIJEKA,51000,CROATIA
ÖBB-INFRASTRUKTUR AG,PRATERSTERN 3,WIEN,1020,AUSTRIA
OFFICE FÉDÉRAL DES ROUTES OFROU SUCCURSALE DE ZOFINGUE,BRÜHLSTRASSE 3,ZOFINGUE,4800,SWITZERLAND
STADT AACHEN - ZENTRALE VERGABESTELLE,LAGERHAUSSTRAßE 20,AACHEN,52064,GERMANY
STADT LEVERKUSEN - FACHBEREICH RECHT UND VERGABESTELLE,HAUPTSTRAßE 105,LEVERKUSEN,51373,GERMANY
"ÚSTAV ORGANICKÉ CHEMIE A BIOCHEMIE AV ČR, V. V. I.",FLEMINGOVO NÁMĚSTÍ 542/2,PRAHA,16000,CZECH REPUBLIC
WOJEWÓDZKI SZPITAL SPECJALISTYCZNY IM. JANUSZA KORCZAKA W SŁUPSKU SP. Z O.O.,UL. HUBALCZYKÓW 1,SŁUPSK,76-200,POLAND
"МНОГОПРОФИЛНА БОЛНИЦА ЗА АКТИВНО ЛЕЧЕНИЕ ""НАЦИОНАЛНА КАРДИОЛОГИЧНА БОЛНИЦА"" ЕАД",УЛ. КОНЬОВИЦА №65,ГР. СОФИЯ,1309,BULGARIA
ОБЩИНА ВЕЛИКО ТЪРНОВО,"ПЛ. ""МАЙКА БЪЛГАРИЯ"" № 2",ГР. ВЕЛИКО ТЪРНОВО,5000,BULGARIA
AGENCE FRANÇAISE DE DÉVELOPPEMENT,5 RUE ROLAND BARTHES,PARIS,75012,FRANCE
GIP RESAH,47 RUE DE CHARONNE,PARIS,75011,FRANCE
HALMSTADS KOMMUN,BOX 153,HALMSTAD,30105,SWEDEN
SPITALUL CLINIC DE RECUPERARE IASI,"STRADA: HALIPA PANTELIMON, NR. 14",IASI,700614,ROMANIA
"SPRÁVA ŽELEZNIC, STÁTNÍ ORGANIZACE",DLÁŽDĚNÁ 1003/7,PRAHA,11000,CZECH REPUBLIC
STADT KOBLENZ,WILLI-HÖRTER-PLATZ 1,KOBLENZ,56068,GERMANY
VARBERGS KOMMUN,ÖSTRA LÅNGGATAN 27,VARBERG,432 80,SWEDEN
DUBLIN CITY COUNCIL,"CIVIC OFFICES, WOOD QUAY",DUBLIN 8,DUBLIN,IRELAND
EUROPEAN INVESTMENT BANK,"98-100, BOULEVARD KONRAD ADENAUER",LUXEMBOURG,L-2950,LUXEMBOURG
MUNICIPIUL ARAD,"STRADA: REVOLUŢIEI, NR. 75",ARAD,310025,ROMANIA
OSLO UNIVERSITETSSYKEHUS HF (HOVEDENHET),POSTBOKS 4956 NYDALEN,OSLO,424,NORWAY
POLITIE NEDERLAND,MARTEN MEESWEG 35,ROTTERDAM,3068 AV,NETHERLANDS
REGION JÖNKÖPINGS LÄN,BOX 1024,JÖNKÖPING,551 11,SWEDEN
UNIWERSYTET IM. ADAMA MICKIEWICZA W POZNANIU,UL. H. WIENIAWSKIEGO 1,POZNAŃ,61-712,POLAND
"BARCELONA DE SERVEIS MUNICIPALS, S.A.",C/ CALÀBRIA 66,BARCELONA,8015,SPAIN
CONSEIL DÉPARTEMENTAL DU GARD,RUE GUILLEMETTE,NIMES,30044,FRANCE
DIVISIÓN ECONÓMICA Y TÉCNICA (CUERPO NACIONAL DE POLICÍA),"JULIÁN GONZÁLEZ SEGADOR, 2",MADRID,28043,SPAIN
EUROPEAN FOOD SAFETY AUTHORITY (EFSA),VIA CARLO MAGNO 1A,PARMA,43126,ITALY
FAKULTNÍ NEMOCNICE HRADEC KRÁLOVÉ,SOKOLSKÁ 581,HRADEC KRÁLOVÉ - NOVÝ HRADEC KRÁLOVÉ,500 05,CZECH REPUBLIC
HÔPITAUX CIVILS DE COLMAR,39 AVENUE DE LA LIBERTÉ,COLMAR,68024,FRANCE
KUNGSBACKA KOMMUN,KUNGSBACKA KOMMUN,KUNGSBACKA,43481,SWEDEN
LANDKREIS GIEßEN - DER KREISAUSSCHUSS -,RIVERSPLATZ 1-9,GIEßEN,35394,GERMANY
MAGISTRAT DER STADT WIEN - MAGISTRATSABTEILUNG 34,MUTHGASSE 62,WIEN,1190,AUSTRIA
POLITECHNIKA WARSZAWSKA,PLAC POLITECHNIKI 1,WARSZAWA,00-661,POLAND
POLITIETS FELLESTJENESTER,FRIDTJOF NANSENS VEI 14,OSLO,369,NORWAY
SPITALUL CLINIC DE URGENTA BUCURESTI,"STRADA: FLOREASCA, NR. 8",BUCURESTI,14461,ROMANIA
STADTWERKE MÜNCHEN GMBH,EMMY-NOETHER-STRAßE 2,MÜNCHEN,80287,GERMANY
AOK RHEINLAND-PFALZ/SAARLAND - DIE GESUNDHEITSKASSE,VIRCHOWSTRAßE 30,EISENBERG,67304,GERMANY
BBS BAU- UND BETRIEBSSERVICE GMBH,LEONIWEG 2,MANNHEIM,68167,GERMANY
"BUNDESREPUBLIK DEUTSCHLAND, VERTRETEN DURCH DAS BUNDESMINISTERIUM DES INNERN UND FÜR HEIMAT, VERTRETEN DURCH DAS BESCHAFFUNGSAMT DES BMI",BRÜHLER STRAßE 3,BONN,53119,GERMANY
DIRECTOR GERENTE DE FREMAP,"CTRA. DE POZUELO, 61 - EDIFICIO DE LA SEDE SOCIAL",MAJADAHONDA (MADRID),28222,SPAIN
"METRO DE MADRID, SOCIEDAD ANÓNIMA","AVDA. ASTURIAS, 4",MADRID,28029,SPAIN
RIJKSVASTGOEDBEDRIJF,KORTE VOORHOUT 7,DEN HAAG,2511 CW,NETHERLANDS
SAMODZIELNY PUBLICZNY ZAKŁAD OPIEKI ZDROWOTNEJ WOJEWÓDZKI SZPITAL SPECJALISTYCZNY NR 3 W RYBNIKU,UL. ENERGETYKÓW 46,RYBNIK,44-200,POLAND
SZPITAL POWIATOWY W ZAWIERCIU,UL. MIODOWA 14 ZAWIERCIE,ZAWIERCIE,42-400,POLAND
UNIVERSITAIR ZIEKENHUIS GENT,CORNEEL HEYMANSLAAN 10,GENT,9000,BELGIUM
WOJEWÓDZTWO MAŁOPOLSKIE,UL. BASZTOWA 22,KRAKÓW,31-156,POLAND
4. WOJSKOWY SZPITAL KLINICZNY Z POLIKLINIKĄ SAMODZIELNY PUBLICZNY ZAKŁAD OPIEKI ZDROWOTNEJ WE WROCŁAWIU,UL. R.WEIGLA 5,WROCŁAW,50-981,POLAND
AKADEMISKA HUS AKTIEBOLAG,BOX 483,GÖTEBORG,401 27,SWEDEN
DIRECCIÓN GENERAL DE TRÁFICO,JOSEFA VALCÁRCEL 28,MADRID,28071,SPAIN
FAKULTNÍ NEMOCNICE BULOVKA,BUDÍNOVA 67/2,PRAHA,18081,CZECH REPUBLIC
FAKULTNÍ NEMOCNICE OSTRAVA,17. LISTOPADU 1790/5,OSTRAVA,70800,CZECH REPUBLIC
INNLANDET FYLKESKOMMUNE,PARKGATA 64,HAMAR,2317,NORWAY
INTENDENTE DE ROTA,"EDIFICIO REM 1ª PLANTA, BASE NAVAL DE ROTA",ROTA (CÁDIZ),11530,SPAIN
KTE KERNTECHNISCHE ENTSORGUNG KARLSRUHE GMBH,HERMANN-VON-HELMHOLTZ-PLATZ 1,EGGENSTEIN-LEOPOLDSHAFEN,76344,GERMANY
LE HAVRE SEINE METROPOLE,"HOTEL DE LA COMMUNAUTE, 19 RUE GEORGES BRAQUE",LE HAVRE,76085,FRANCE
SAINT ETIENNE MÉTROPOLE,"2 AVENUE GRÜNER, CS 80257",SAINT-ETIENNE,42006,FRANCE
SPRÁVA KRKONOŠSKÉHO NÁRODNÍHO PARKU,DOBROVSKÉHO 3,VRCHLABÍ,54301,CZECH REPUBLIC
STADT AUGSBURG,RATHAUSPLATZ 1,AUGSBURG,86150,GERMANY
SZPITAL GROCHOWSKI IM. DR MED. RAFAŁA MASZTAKA SP. Z O.O.,UL. GRENADIERÓW 51/59,WARSZAWA,04-073,POLAND
UNIVERZITA JANA EVANGELISTY PURKYNĚ V ÚSTÍ NAD LABEM,PASTEUROVA 1,ÚSTÍ NAD LABEM,40096,CZECH REPUBLIC
ZENTRALE GEBÄUDEBEWIRTSCHAFTUNG LÜNEN,WILLY-BRANDT-PLATZ 5,LÜNEN,44532,GERMANY
,"B-DUL 1 MAI, NR. 6",SUCEAVA,720224,ROMANIA
25. WOJSKOWY ODDZIAŁ GOSPODARCZY W BIAŁYMSTOKU,UL. KAWALERYJSKA 70,BIAŁYSTOK,15-325,POLAND
ALLIADE HABITAT,173 AVENUE JEAN JAURÈS,LYON,69007,FRANCE
ČESKÁ REPUBLIKA - MINISTERSTVO OBRANY,TYCHONOVA 221/1,PRAHA 6,160 00,CZECH REPUBLIC
GÓRNOŚLĄSKIE CENTRUM MEDYCZNE IM. PROF. LESZKA GIECA ŚLĄSKIEGO UNIWERSYTETU MEDYCZNEGO W KATOWICACH,UL. ZIOŁOWA 45-47,KATOWICE,40-635,POLAND
ROGALAND FYLKESKOMMUNE,ARKITEKT ECKHOFFSGATE 1,STAVANGER,4010,NORWAY
SAMODZIELNY PUBLICZNY ZAKŁAD OPIEKI ZDROWOTNEJ UNIWERSYTECKI SZPITAL KLINICZNY IM. WOJSKOWEJ AKADEMII MEDYCZNEJ UNIWERSYTETU MEDYCZNEGO W ŁODZI – CENTRALNY SZPITAL WETERANÓW,UL. ŻEROMSKIEGO 113,ŁÓDŹ,90-549,POLAND
STAATLICHES BAUAMT BAYREUTH,WILHELMINENSTRAßE 2,BAYREUTH,95444,GERMANY
STAVANGER KOMMUNE,POSTBOKS 8001,STAVANGER,4068,NORWAY
SZEGEDI TUDOMÁNYEGYETEM,DUGONICS TÉR 13,SZEGED,6720,HUNGARY
UNIVERZITA PALACKÉHO V OLOMOUCI,KŘÍŽKOVSKÉHO 511/8,OLOMOUC,77147,CZECH REPUBLIC
UNIWERSYTET WARSZAWSKI,KRAKOWSKIE PRZEDMIEŚCIE 26/28,WARSZAWA,00-927,POLAND
ОБЩИНА - СТАРА ЗАГОРА,УЛ. ЦАР СИМЕОН ВЕЛИКИ №.107,ГР.СТАРА ЗАГОРА,6000,BULGARIA
УНИВЕРСИТЕТСКА МНОГОПРОФИЛНА БОЛНИЦА ЗА АКТИВНО ЛЕЧЕНИЕ И СПЕШНА МЕДИЦИНА Н.И. ПИРОГОВ ЕАД,"БУЛ. ""ТОТЛЕБЕН"" №.21",ГР. СОФИЯ,1606,BULGARIA
DEPARTEMENT DE LA SAVOIE,"CHÂTEAU DES DUCS DE SAVOIE, CS 31802",CHAMBERY,73018,FRANCE
FUNDACIÓN DE GESTIÓN SANITARIA DEL HOSPITAL DE LA SANTA CREU I SANT PAU,"SANT ANTONI M. CLARET, 167 - PABELLÓN SANT ANTONI PLANTA BAJA",BARCELONA,8025,SPAIN
"GENERALNA DYREKCJA DRÓG KRAJOWYCH I AUTOSTRAD UL. WRONIA 53, 00-874 WARSZAWA, PROWADZĄCY POSTĘPOWANIE: GENERALNA DYREKCJA DRÓG KRAJOWYCH I AUTOSTRAD ODDZIAŁ W SZCZECINIE",AL. BOHATERÓW WARSZAWY 33,SZCZECIN,70-340,POLAND
HRVATSKE ŠUME D.O.O.,ULICA KNEZA BRANIMIRA 1,ZAGREB,10000,CROATIA
"INSTYTUT ""CENTRUM ZDROWIA MATKI POLKI""",UL. RZGOWSKA 281/289,ŁÓDŹ,93 - 338,POLAND
KLAIPĖDOS MIESTO SAVIVALDYBĖS ADMINISTRACIJA,LIEPŲ G. 11,KLAIPĖDA,91502,LITHUANIA
LOTNICZA AKADEMIA WOJSKOWA,UL. DYWIZJONU 303 NR 35,DĘBLIN,08-521,POLAND
POCZTA POLSKA S.A.,UL. RODZINY HISZPAŃSKICH 8,WARSZAWA,00-940,POLAND
POLITECHNIKA ŚLĄSKA,UL. AKADEMICKA 2A,GLIWICE,44-100,POLAND
REGIA NATIONALA A PADURILOR - ROMSILVA RA,"STRADA: PETRICANI, NR. 9A",BUCURESTI,23842,ROMANIA
SECTOR 3 (PRIMARIA SECTOR 3 BUCURESTI),"STRADA: DUDEŞTI, NR. 191",BUCURESTI,31084,ROMANIA
SENAATTI-KIINTEISTÖT,"LINTULAHDENKATU 5 A, PL 237",HELSINKI,531,FINLAND
STADT BOTTROP,PAßSTR. 6 (RAMADA HOTEL),BOTTROP,46236,GERMANY
STADT MÖNCHENGLADBACH,RATHAUSPLATZ 1,MÖNCHENGLADBACH,41061,GERMANY
WOJEWÓDZTWO ŁÓDZKIE,AL. PIŁSUDSKIEGO 8,ŁÓDŹ,90 - 051,POLAND
1 WOJSKOWY SZPITAL KLINICZNY Z POLIKLINIKĄ SPZOZ W LUBLINIE,AL. RACŁAWICKIE 23,LUBLIN,20-049,POLAND
ADIF ALTA VELOCIDAD,"AVDA PÍO XII, 110, CARACOLA 16 28036-MADRID",MADRID,28036,SPAIN
BAUSKAS NOVADA PAŠVALDĪBA,UZVARAS IELA 1,BAUSKA,LV 3901,LATVIA
"BUNDESAMT FÜR AUSRÜSTUNG, INFORMATIONSTECHNIK UND NUTZUNG DER BUNDESWEHR",FERDINAND-SAUERBRUCH-STR. 1,KOBLENZ,56073,GERMANY
"CANAL DE ISABEL II, S.A.","C/ SANTA ENGRACIA, 125",MADRID,28003,SPAIN
ČESKÁ REPUBLIKA - MINISTERSTVO VNITRA,POŠTOVNÍ SCHRÁNKA 160,PRAHA 6,16041,CZECH REPUBLIC
"EIGENBETRIEB ""KOMMUNALE OBJEKTBEWIRTSCHAFTUNG UND -ENTWICKLUNG DER HANSE- UND UNIVERSITÄTSSTADT ROSTOCK""",ULMENSTR. 44,ROSTOCK,18057,GERMANY
"INFRAESTRUCTURES DE LA GENERALITAT DE CATALUNYA, SAU","CALLE DELS VERGÓS, 36-42",BARCELONA,8017,SPAIN
INSPECTORATUL GENERAL PENTRU SITUATII DE URGENTA,"STRADA: BANU DUMITRACHE, NR. 46",BUCURESTI,32572,ROMANIA
MINISTERSTVO VNITRA,NAD ŠTOLOU 936/3,PRAHA,17000,CZECH REPUBLIC
MUNICIPIUL GALATI,"STRADA: DOMNEASCĂ, NR. 54, SECTOR: -, JUDET: GALATI",GALATI,800008,ROMANIA
OFFICE FÉDÉRAL DES CONSTRUCTIONS ET DE LA LOGISTIQUE OFCL,FELLERSTRASSE 21,BERNE,3003,SWITZERLAND
PARTENORD HABITAT,828 RUE DE CAMBRAI,LILLE,59000,FRANCE
CLERMONT AUVERGNE MÉTROPOLE,64-66 AVENUE DE L'UNION SOVIÉTIQUE 1,CLERMONT FERRAND,63007,FRANCE
DÉPARTEMENT DE LA RÉUNION,"DIRECTION DE LA COMMANDE PUBLIQUE, 31 RUE DE PARIS",SAINT-DENIS,97400,FRANCE
FORSVARET V/FORSVARETS LOGISTIKKORGANISASJON,LYSAKER TORG 45,LYSAKER,1366,NORWAY
FRAPORT AG,"GEBÄUDE 149, RAUM 5145",FRANKFURT,60547,GERMANY
GERENCIA DE LA ENTIDAD ESTATAL DE DERECHO PÚBLICO TRABAJO PENITENCIARIO Y FORMACIÓN PARA EL EMPLEO,CEDACEROS 11 4ª PLANTA,MADRID,28014,SPAIN
HELMHOLTZ ZENTRUM MÜNCHEN DEUTSCHES FORSCHUNGSZENTRUM FÜR GESUNDHEIT UND UMWELT (GMBH),INGOLSTÄDTER LANDSTRASSE 1,NEUHERBERG,85764,GERMANY
KLINICZNY SZPITAL WOJEWÓDZKI NR 2 IM. ŚW. JADWIGI KRÓLOWEJ W RZESZOWIE,UL. LWOWSKA 60,RZESZÓW,35-301,POLAND
"KRAJSKÁ NEMOCNICE LIBEREC, A.S.",HUSOVA 357/10,LIBEREC,46001,CZECH REPUBLIC
LULEÅ KOMMUN,LULEÅ KOMMUN LULEÅ KOMMUN,LULEÅ,971 85,SWEDEN
"MONOPOLVERWALTUNG GMBH - MONOPOLSTELLE FÜR WIEN, NIEDERÖSTERREICH, BURGENLAND",AM BELVEDERE 10 – TOP 11,WIEN,1100,AUSTRIA
"SPITALUL JUDETEAN DE URGENTA""SFANTUL IOAN CEL NOU""SUCEAVA","STRADA: 1 DECEMBRIE 1918, NR. 21, SECTOR: -, JUDET: SUCEAVA",SUCEAVA,720237,ROMANIA
STABSSTELLE FÜR STAATLICHE LIEGENSCHAFTEN (SSL),STÄDTLE 38,VADUZ,9490,LIECHTENSTEIN
TENNET TSO GMBH,BERNECKER STRAßE 70,BAYREUTH,95448,GERMANY
МИНИ МАРИЦА - ИЗТОК ЕАД,УЛ. ГЕОРГИ ДИМИТРОВ № 13,ГР. РАДНЕВО,6260,BULGARIA
BAU- UND LIEGENSCHAFTSBETRIEB NRW DUISBURG,FRIEDRICH-WILHELM STR. 12,DUISBURG,47051,GERMANY
ČESKÁ REPUBLIKA - MINISTERSTVO FINANCÍ,LETENSKÁ 525/15,PRAHA 1,11810,CZECH REPUBLIC
CHU DE BORDEAUX,12 RUE DUBERNAT,TALENCE,33400,FRANCE
CONSEIL DÉPARTEMENTAL DE L'HÉRAULT,"HÔTEL DU DÉPARTEMENT, MAS D'ALCO, 1977 AVENUE DES MOULINS",MONTPELLIER,34087,FRANCE
ENEDIS,TOUR ENEDIS 34 PLACE DES COROLLES COURBEVOIE,PARIS LA DEFENSE,92079,FRANCE
OGRES NOVADA PAŠVALDĪBA,BRĪVĪBAS IELA 33,OGRE,LV - 5001,LATVIA
REGION GOTLAND,REGION GOTLAND,VISBY,621 81,SWEDEN
REGION HANNOVER,HILDESHEIMER STR. 20,HANNOVER,30169,GERMANY
SERVICIO NAVARRO DE SALUD-OSASUNBIDEA,"C/TUDELA, Nº20",PAMPLONA (NAVARRA),31003,SPAIN
STADT NÜRNBERG - ZENTRALE DIENSTE,WINKLERSTR. 33,NÜRNBERG,90403,GERMANY
TURTO VALDYMO IR ŪKIO DEPARTAMENTAS PRIE LIETUVOS RESPUBLIKOS VIDAUS REIKALŲ MINISTERIJOS,ŠVENTARAGIO G. 2,VILNIUS,1510,LITHUANIA
UNIVERZITA KOMENSKÉHO V BRATISLAVE,"ŠAFÁRIKOVO NÁMESTIE 6, P.O.BOX 440",BRATISLAVA,81499,SLOVAKIA
,FRIEDENSTRAßE 40,MÜNCHEN,81671,GERMANY
DISTRIBUTIE ENERGIE OLTENIA S.A.,"STRADA: CALEA SEVERINULUI NR 97 PARTER, ET 2, 3, 4, NR. 97",CRAIOVA,200769,ROMANIA
INSTITUT CATALÀ DE LA SALUT. CENTRO CORPORATIVO,"GRAN VIA DE LES CORTS CATALANES 587, 2A PLANTA. GERENCIA DE COMPRAS Y POLÍTICAS DE DISTRIBUCIÓN",BARCELONA,8007,SPAIN
LANDKREIS VORPOMMERN-RÜGEN,CARL-HEYDEMANN-RING 67,STRALSUND,18437,GERMANY
MUNICIPIUL CLUJ-NAPOCA,"STRADA: MOŢILOR, NR. 1-3",CLUJ-NAPOCA,400001,ROMANIA
MUNICIPIUL ORADEA,"STRADA: UNIRII, NR. 1",ORADEA,410100,ROMANIA
ÖREBRO KOMMUN,BOX 30000,ÖREBRO,70135,SWEDEN
RISE RESEARCH INSTITUTES OF SWEDEN AB,BOX 857,BORÅS,50115,SWEDEN
SNCB-PROCUREMENT,AVENUE DE LA PORTE DE HAL 40,BRUXELLES,1060,BELGIUM
"SPITALUL CLINIC MUNICIPAL ""DR.GAVRIL CURTEANU""","STRADA: COPOSU CORNELIU, NR. 12, SECTOR: -, JUDET: BIHOR",ORADEA,410469,ROMANIA
STAATL. BAUAMT AMBERG-SULZBACH,ARCHIVSTRAßE 1,AMBERG,92224,GERMANY
"STADT BOCHUM, REFERAT ZENTRALER EINKAUF",HANS-BÖCKLER-STR. 19,BOCHUM,44777,GERMANY
ZDRAVOTNÍ ÚSTAV SE SÍDLEM V OSTRAVĚ,"PARTYZÁNSKÉ NÁMĚSTÍ 2633/7, MORAVSKÁ OSTRAVA",OSTRAVA,70200,CZECH REPUBLIC
ВОЕННОМЕДИЦИНСКА АКАДЕМИЯ,УЛ. СВ. ГЕОРГИ СОФИЙСКИ № 3,СОФИЯ,1606,BULGARIA
МНОГОПРОФИЛНА БОЛНИЦА ЗА АКТИВНО ЛЕЧЕНИЕ - ШУМЕН АД,УЛ. ВАСИЛ АПРИЛОВ №.63,ГР. ШУМЕН,9700,BULGARIA
A.L.E.R. MILANO,VIALE ROMAGNA N. 26,MILANO,20133,ITALY
ÁREA DE GOBIERNO DE MEDIO AMBIENTE Y MOVILIDAD,"MONTALBÁN, 1",MADRID,28014,SPAIN
COMITÉ EJECUTIVO DE LA MANCOMUNIDAD DE LOS CANALES DEL TAIBILLA,"MAYOR, 1",CARTAGENA,30201,SPAIN
DIAKONEO KDÖR BAU- UND IMMOBILIENMANAGEMENT,HECKENSTRAßE 10,NEUENDETTELSAU,91564,GERMANY
ENERGINET ELTRANSMISSION A/S,TONNE KJÆRSVEJ 65,FREDERICIA,7000,DENMARK
"LANDESBETRIEB BAU- UND LIEGENSCHAFTSMANAGEMENT SACHSEN-ANHALT (BLSA), ZENTRALE VERGABESTELLE (ZVS)","PF 3964 (OTTO-HAHN-STRAßE 1 + 1A, 39106 MAGDEBURG)",MAGDEBURG,39014,GERMANY
"LANDESHAUPTSTADT MAGDEBURG, DER OBERBÜRGERMEISTER",(SITZ) KATZENSPRUNG 2,MAGDEBURG,39090,GERMANY
LUBELSKI WĘGIEL BOGDANKA S.A. W BOGDANCE,BOGDANKA 21-013 PUCHACZÓW POLSKA,PUCHACZÓW,21-013,POLAND
SERVICIO ANDALUZ DE SALUD. SERVICIOS CENTRALES,"AVDA. DE LA CONSTITUCIÓN, 18",SEVILLA,41071,SPAIN
SOCIETATEA NATIONALA NUCLEARELECTRICA S.A.,"STRADA: POLONĂ, NR. 65",BUCURESTI,10494,ROMANIA
SPITALUL CLINIC OBSTETRICA GINECOLOGIE CUZA-VODA,"STRADA: CUZA VODĂ, NR. 34",IASI,700038,ROMANIA
"TRANSPORTS DE BARCELONA, SA","CALLE 60, NÚMERO 21-23 SECTOR A, POLÍGONO INDUSTRIAL ZONA FRANCA",BARCELONA,8040,SPAIN
TROMS OG FINNMARK FYLKESKOMMUNE,POSTBOKS 701,VADSØ,9815,NORWAY
UNIVERSITÄTSKLINIKUM AACHEN AÖR,PAUWELSSTR. 30,AACHEN,52074,GERMANY
UŽDAROJI AKCINĖ BENDROVĖ 'VILNIAUS VANDENYS',SPAUDOS G. 8,VILNIUS,5132,LITHUANIA
VALSTYBĖS SIENOS APSAUGOS TARNYBA PRIE LIETUVOS RESPUBLIKOS VIDAUS REIKALŲ MINISTERIJOS,SAVANORIŲ PR. 2,VILNIUS,3116,LITHUANIA
ΠΟΛΕΜΙΚΗ ΑΕΡΟΠΟΡΙΑ - ΥΠΗΡΕΣΙΑ ΠΡΟΜΗΘΕΙΩΝ,"ΔΗΜΗΤΡΙΟΥ ΣΟΥΤΣΟΥ 40, 4ΟΣ ΌΡΟΦΟΣ",ΑΜΠΕΛΟΚΗΠΟΙ,115 21,GREECE
AB LIETUVOS AUTOMOBILIŲ KELIŲ DIREKCIJA,J. BASANAVIČIAUS G. 36,VILNIUS,3109,LITHUANIA
AQUITANIS,1 AVENUE ANDRÉ REINSON,BORDEAUX,33028,FRANCE
ARCS - AZIENDA REGIONALE DI COORDINAMENTO PER LA SALUTE,"VIA POZZUOLO, 330",UDINE,33100,ITALY
CONSEIL DÉPARTEMENTAL DE L'ESSONNE,BOULEVARD DE FRANCE,ÉVRY COURCOURONNES,91012,FRANCE
HLAVNÉ MESTO SR BRATISLAVA,PRIMACIÁLNE NÁMESTIE 1,BRATISLAVA - MESTSKÁ ČASŤ STARÉ MESTO,81499,SLOVAKIA
HRVATSKA ELEKTROPRIVREDA D.D.,ULICA GRADA VUKOVARA 37,ZAGREB,10000,CROATIA
JEDNOSTKA WOJSKOWA NR 6021,UL. ŻWIRKI I WIGURY 9/13,WARSZAWA,00-909,POLAND
MINISTERSTVO OBRANY,TYCHONOVA 221/1,PRAHA (HRADČANY),16000,CZECH REPUBLIC
PROPOTSDAM GMBH,PAPPELALLEE 4,POTSDAM,14469,GERMANY
SERVICIUL DE PROTECTIE SI PAZA – U.M. 0149 F BUCURESTI,"STRADA: BULEVARDUL GENIULUI, NR. 42B",BUCURESTI,60117,ROMANIA
SPITAL CLINIC JUDETEAN DE URGENTA ORADEA,"STRADA: REPUBLICII, NR. 37.",ORADEA,410159,ROMANIA
"STAATSBETRIEB SÄCHSISCHES IMMOBILIEN- UND BAUMANAGEMENT, ZENTRALE, ZENTRALSTELLE VERGABE- UND VERTRAGSMANAGEMENT",RIESAER STRAßE 7H,DRESDEN,1129,GERMANY
STADTVERWALTUNG COTTBUS,NEUMARKT 5,COTTBUS,3046,GERMANY
SZPITAL KLINICZNY IM. KAROLA JONSCHERA UNIWERSYTETU MEDYCZNEGO IM. KAROLA MARCINKOWSKIEGO W POZNANIU,UL. SZPITALNA 27/33,POZNAŃ,60-572,POLAND
UNIVERSITATEA DUNAREA DE JOS,STRADA: DOMNEASCĂ NR. 47,GALATI,800008,ROMANIA
UNIWERSYTECKI DZIECIĘCY SZPITAL KLINICZNY IM. L. ZAMENHOFA W BIAŁYMSTOKU,JERZEGO WASZYNGTONA 17,BIAŁYSTOK,15-274,POLAND
VALSTS REĢIONĀLĀS ATTĪSTĪBAS AĢENTŪRA,ALBERTA IELA 10,RĪGA,LV-1010,LATVIA
ZARZĄD DRÓG WOJEWÓDZKICH W KRAKOWIE,UL. GŁOWACKIEGO 56,KRAKÓW,30-085,POLAND
МНОГОПРОФИЛНА БОЛНИЦА ЗА АКТИВНО ЛЕЧЕНИЕ - САМОКОВ ЕООД,УЛ. МАКЕДОНИЯ №.49,ГР. САМОКОВ,2000,BULGARIA
ADMINISTRADOR DE INFRAESTRUCTURAS FERROVIARIAS,"CALLE SOR ANGELA DE LA CRUZ, 3",MADRID,28020,SPAIN
AZIENDA USL DI BOLOGNA,VIA CASTIGLIONE 29,BOLOGNA,40124,ITALY
BUNDESANSTALT FÜR IMMOBILIENAUFGABEN,FASANENSTRAßE 87,BERLIN,10623,GERMANY
CENTRUM ONKOLOGII W BYDGOSZCZY IM. PROF. FRANCISZKA ŁUKASZCZYKA W BYDGOSZCZY,UL. DR IZABELI ROMANOWSKIEJ 2,BYDGOSZCZ,85-796,POLAND
CONSEIL DEPARTEMENTAL DE LOIRE-ATLANTI,3 QUAI CEINERAY,NANTES,44041,FRANCE
GMINA SIEMIANOWICE ŚLĄSKIE - URZĄD MIASTA SIEMIANOWICE ŚLĄSKIE W IMIENIU I NA RZECZ KTÓREJ DZIAŁA MIEJSKIE PRZEDSIĘBIORSTWO GOSPODARKI KOMUNALNEJ I MIESZKANIOWEJ SP. Z O. O.,UL. JANA PAWŁA II 10,SIEMIANOWICE ŚLĄSKIE,41-100,POLAND
KOMENDA STOŁECZNA POLICJI,UL. NOWOLIPIE 2,WARSZAWA,00-150,POLAND
"LETIŠTĚ PRAHA, A. S.",K LETIŠTI 1019/6,PRAHA,16100,CZECH REPUBLIC
"NEMOCNICE ČESKÉ BUDĚJOVICE, A.S.",B. NĚMCOVÉ 585/54,ČESKÉ BUDĚJOVICE,37001,CZECH REPUBLIC
"SERVICIO MADRILEÑO DE LA SALUD, HOSPITAL UNIVERSITARIO RAMÓN Y CAJAL","CARRETERA COLMENAR VIEJO, KILÓMETRO 9,100",MADRID,28034,SPAIN
STADT SEELZE,RATHAUSPLATZ 1,SEELZE,30926,GERMANY
UNIWERSYTET ŚLĄSKI W KATOWICACH,UL. BANKOWA 12,KATOWICE,40-007,POLAND
VERMÖGEN UND BAU BADEN-WÜRTTEMBERG AMT FREIBURG,MOZARTSTRAßE 58,FREIBURG,79104,GERMANY
WOJEWÓDZKI SZPITAL SPECJALISTYCZNY W BIAŁEJ PODLASKIEJ,UL. TEREBELSKA 57-65,BIAŁA PODLASKA,21-500,POLAND
WOJEWÓDZKI SZPITAL SPECJALISTYCZNY WE WROCŁAWIU,UL. H. KAMIEŃSKIEGO 73 A,WROCŁAW,51-124,POLAND
"""МНОГОПРОФИЛНА БОЛНИЦА ЗА АКТИВНО ЛЕЧЕНИЕ Д - Р ИВАН СЕЛИМИНСКИ - СЛИВЕН"" АД",БУЛ.ХРИСТО БОТЕВ №.1,ГР. СЛИВЕН,8800,BULGARIA
СОФИЙСКА ВОДА АД,"Р-Н КРАСНО СЕЛО, БИЗНЕС ЦЕНТЪР ИНТЕРПРЕД ЦАР БОРИС, БУЛ.""ЦАР БОРИС III"" № 159, ЕТ. 2 И 3",ГР. СОФИЯ,1618,BULGARIA
"DIRECCIÓN GENERAL DE LA MUTUAL MIDAT CYCLOPS, MUTUA COLABORADORA CON LA SEGURIDAD SOCIAL, Nº 1","AVDA. JOSEP TARRADELLAS, 14-18",BARCELONA,8029,SPAIN
ESPOON KAUPUNKI,PL 640,ESPOON KAUPUNKI,2070,FINLAND
KARLOVARSKÁ KRAJSKÁ NEMOCNICE A.S.,BEZRUČOVA 1190/19,KARLOVY VARY,36001,CZECH REPUBLIC
"LAND HESSEN, VERTRETEN DURCH DIE HESSISCHE ZENTRALE FÜR DATENVERARBEITUNG",MAINZER STRAßE 29,WIESBADEN,65185,GERMANY
LOTNICZE POGOTOWIE RATUNKOWE,UL. KSIĘŻYCOWA 5,WARSZAWA,01-934,POLAND
OFFICE PUBLIC DE L'HABITAT DE LA SOMME,1 RUE DU GÉNÉRAL FRÈRE,AMIENS,80084,FRANCE
RECTOR DE LA UNIVERSIDAD CARLOS III DE MADRID,"MADRID, 126",GETAFE(MADRID),28903,SPAIN
REGION SJÆLLAND,ALLEEN 15,SORØ,4180,DENMARK
RIIGIMETSA MAJANDAMISE KESKUS,MÕISA,HALJALA VALD,45403,ESTONIA
SAMODZIELNY PUBLICZNY WOJEWÓDZKI SZPITAL CHIRURGII URAZOWEJ IM. DR. JANUSZA DAABA W PIEKARACH ŚLĄSKICH,UL.BYTOMSKA 62,PIEKARY ŚLĄSKIE,41-940,POLAND
STAATLICHES BAUAMT PASSAU,AM SCHANZL 2,PASSAU,94032,GERMANY
"STADT PLAUEN, VERGABESTELLE",UNTERER GRABEN 1,PLAUEN,8523,GERMANY
TALLINNA STRATEEGIAKESKUS,VABADUSE VÄLJAK 7,TALLINN,15199,ESTONIA
UNIVERSITÄT STUTTGART,KEPLERSTR. 7,STUTTGART,70174,GERMANY
VEJDIREKTORATET,"CARSTEN NIEBUHRS GADE 43, 5. SAL",KØBENHAVN V,1577,DENMARK
ЮГОЗАПАДНО ДЪРЖАВНО ПРЕДПРИЯТИЕ ДП,"""ЗОРА"" №.18",ГР. БЛАГОЕВГРАД,2700,BULGARIA
CNFPT,"80 RUE DE REUILLY, CS 41232",PARIS,75578,FRANCE
DIRECCIÓN GENERAL - OSAKIDETZA,CALLE ÁLAVA 45,VITORIA-GASTEIZ,1006,SPAIN
FUNDAÇÃO INATEL,"CALÇADA DE SANT'ANA, 180",LISBOA,1169-062,PORTUGAL
HRVATSKI ZAVOD ZA TRANSFUZIJSKU MEDICINU,PETROVA 3,ZAGREB,10000,CROATIA
KANSANELÄKELAITOS,PL 450,KELA,56,FINLAND
KKH KAUFMÄNNISCHE KRANKENKASSE,KARL-WIECHERT-ALLEE 61,HANNOVER,30625,GERMANY
"KREIS RECKLINGHAUSEN, DER LANDRAT",KURT-SCHUMACHER-ALLEE 1,RECKLINGHAUSEN,45657,GERMANY
LANDESHAUPTSTADT BREGENZ,RATHAUSSTRAßE 4,BREGENZ,6900,AUSTRIA
ŁÓDZKA SPÓŁKA INFRASTRUKTURALNA SP. Z O.O.,UL. WÓLCZAŃSKA 17,ŁÓDŹ,90-731,POLAND
POLITSEI- JA PIIRIVALVEAMET,PÄRNU MNT 139,TALLINN,15060,ESTONIA
REGION NORDJYLLAND,NIELS BOHRS VEJ 30,AALBORG Ø,9220,DENMARK
SPITALUL JUDETEAN SATU MARE,"STRADA: RAVENSBURG, NR. 1-3",SATU MARE,440192,ROMANIA
STAATL. BAUAMT ERLANGEN-NÜRNBERG,BUCHER STR. 30,NÜRNBERG,90408,GERMANY
TRENČIANSKY SAMOSPRÁVNY KRAJ,K DOLNEJ STANICI 7282/20A,TRENČÍN,91101,SLOVAKIA
"UNIVERZITA PAVLA JOZEFA ŠAFÁRIKA V KOŠICIACH, REKTORÁT",ŠROBÁROVA 2,KOŠICE - MESTSKÁ ČASŤ STARÉ MESTO,4180,SLOVAKIA
UNIWERSYTET WROCŁAWSKI,PL.UNIWERSYTECKI 1,WROCŁAW,50-137,POLAND
VŠĮ LIETUVOS NACIONALINIS RADIJAS IR TELEVIZIJA,S. KONARSKIO G. 49,VILNIUS,3123,LITHUANIA
VŠĮ RESPUBLIKINĖ KLAIPĖDOS LIGONINĖ,S. NĖRIES G. 3,KLAIPĖDA,92231,LITHUANIA
APHM,80 RUE BROCHIER,MARSEILLE,13292,FRANCE
ASKER KOMMUNE,POSTBOKS 353,ASKER,1372,NORWAY
AYUNTAMIENTO DE BILBAO. DIRECCIÓN DE CONTRATACIÓN.,"PLAZA DE VENEZUELA Nº 2, 5",BILBAO,48001,SPAIN
BAU- UND UMWELTSCHUTZDIREKTION KANTON BASEL-LANDSCHAFT ZENTRALE BESCHAFFUNGSSTELLE,RHEINSTRASSE 29,LIESTAL,4410,SWITZERLAND
BERLINER FEUERWEHR,NIKOLAUS-GROß-WEG 2,BERLIN,13627,GERMANY
EESTI ENERGIA AS,LELLE TN 22,TALLINN,11318,ESTONIA
GRAND PORT MARITIME DE MARSEILLE,"23, PLACE DE LA JOLIETTE, CS 81965",MARSEILLE,13226,FRANCE
"JAVNI HOLDING MARIBOR, DRUŽBA ZA IZVAJANJE STROKOVNIH IN RAZVOJNIH NALOG NA PODROČJU GOSPODARSKIH JAVNIH SLUŽB D.O.O.",ZAGREBŠKA CESTA 30,MARIBOR,2000,SLOVENIA
LANDESHAUPTSTADT STUTTGART - DLZ,HAUPTSTÄTTER STR. 66,STUTTGART,70178,GERMANY
MAGYAR FÖLDGÁZTÁROLÓ ZÁRTKÖRŰEN MŰKÖDŐ RÉSZVÉNYTÁRSASÁG,VÁCI ÚT 144-150,BUDAPEST,1138,HUNGARY
NIF NEMZETI INFRASTRUKTÚRA FEJLESZTŐ ZÁRTKÖRŰEN MŰKÖDŐ RÉSZVÉNYTÁRSASÁG,VÁCI ÚT 45.,BUDAPEST,1134,HUNGARY
PENITENCIAR SPITAL BUCURESTI JILAVA,"STRADA: SABARULUI, NR. 1",JILAVA,75971,ROMANIA
POCZTA POLSKA SPÓŁKA AKCYJNA,UL. RODZINY HISZPAŃSKICH 8,WARSZAWA,00-940,POLAND
REGION STOCKHOLM - SERVICEFÖRVALTNINGEN,BOX 22550,STOCKHOLM,104 22,SWEDEN
"SPITAL CLINIC JUDETEAN DE URGENTA ""PIUS BRINZEU"" TIMISOARA","STRADA: LIVIU REBREANU, NR. 156",TIMISOARA,300736,ROMANIA
TUKUMA NOVADA PAŠVALDĪBA,TALSU IELA 4,TUKUMS,LV-3101,LATVIA
WATERSCHAP RIVIERENLAND,DE BLOMBOOGERD 1 TE TIEL,TIEL,4003 BX,NETHERLANDS
WOJEWÓDZKI SZPITAL IM. ŚW. OJCA PIO W PRZEMYŚLU.,UL. MONTE CASSINO 18,PRZEMYŚL,37-700,POLAND
DE VLAAMSE WATERWEG NV,HAVENSTRAAT 44,HASSELT,3500,BELGIUM
"DOLNOŚLĄSKIE CENTRUM ONKOLOGII, PULMONOLOGII I HEMATOLOGII",PL. HIRSZFELDA 12,WROCŁAW,53-413,POLAND
ECONOMAT DES ARMÉES,26 RUE DELIZY,PANTIN CEDEX,93507,FRANCE
FAKULTNÍ NEMOCNICE HRADEC KRÁLOVÉ,SOKOLSKÁ 581,HRADEC KRÁLOVÉ - NOVÝ HRADEC KRÁLOVÉ,50005,CZECH REPUBLIC
GENERALNA DYREKCJA DRÓG KRAJOWYCH I AUTOSTRAD ODDZIAŁ W OLSZTYNIE,AL. WARSZAWSKA 89,OLSZTYN,10-083,POLAND
IKK CLASSIC,TANNENSTRAßE 4B,DRESDEN,1099,GERMANY
KARLSKRONA KOMMUN,ÖSTRA KÖPMANSGATAN 1,KARLSKRONA,371 83,SWEDEN
PARIS 2024,"46, RUE PROUDHON",SAINT-DENIS,93210,FRANCE
ŘEDITELSTVÍ SILNIC A DÁLNIC ČR,NA PANKRÁCI 546/56,PRAHA 4,140 00,CZECH REPUBLIC
REGION SYDDANMARK,DAMHAVEN 12,VEJLE,7100,DENMARK
SERVICIO MURCIANO DE SALUD,"C/CENTRAL, 7. EDIFICIO HABITAMIA 1",MURCIA,30100,SPAIN
SPITALUL CLINIC JUDETEAN MURES,"STRADA: BERNADY GYÖRGY, NR. 6",TARGU MURES,540072,ROMANIA
SPITALUL JUDETEAN DE URGENTA TARGOVISTE,"STRADA: VLADIMIRESCU TUDOR, NR. 48",TARGOVISTE,130095,ROMANIA
"STADT KREFELD, ZGM - ZENTRALES GEBÄUDEMANAGEMENT",MEVISSENSTRAßE 65,KREFELD,47803,GERMANY
STADT OLDENBURG (OLDB) VERGABESTELLE,SCHLOSSPLATZ 25/26,OLDENBURG,26122,GERMANY
"UMG UNIVERSITÄTSMEDIZIN GÖTTINGEN, STIFTUNG ÖFFENTLICHEN RECHTS",ROBERT-KOCH-STR. 40,GÖTTINGEN,37075,GERMANY
UNIVERSITÄT HAMBURG,MITTELWEG 124,HAMBURG,20148,GERMANY
VERMÖGEN UND BAU BADEN-WÜRTTEMBERG AMT RAVENSBURG,MINNEGGSTRAßE 1,RAVENSBURG,88214,GERMANY
УНИВЕРСИТЕТ ЗА НАЦИОНАЛНО И СВЕТОВНО СТОПАНСТВО,Ж.К. СТ.ГРАД БУЛ. 8-МИ ДЕКЕМВРИ,ГР.СОФИЯ,1700,BULGARIA
AZIENDA OSPEDALIERA SAN CAMILLO FORLANINI,"CIRCONVALLAZIONE GIANICOLENSE, 87",ROMA,152,ITALY
DEPARTEMENT DE LA CHARENTE MARITIME,"DIRECTION DES AFFAIRES FINANCIÈRES & JURIDIQUES SERVICE DES MARCHÉS PUBLICS, 85 BOULEVARD DE LA RÉPUBLIQUE - CS 60 003",LA ROCHELLE,17000,FRANCE
GENERALZOLLDIREKTION ZENTRALE BESCHAFFUNGSSTELLE DER BUNDESFINANZVERWALTUNG,SAUTIERSTRAßE 32,FREIBURG,79104,GERMANY
GRDF,6 RUE CONDORCET,PARIS,75009,FRANCE
KLINIČKA BOLNICA MERKUR,ZAJČEVA 19,ZAGREB,10000,CROATIA
MINISTERUL APARARII - U.M 02175 CONSTANTA,"STRADA: MAMAIA, NR. 96",CONSTANTA,900527,ROMANIA
"NEMOCNICE PARDUBICKÉHO KRAJE, A.S.",KYJEVSKÁ 44,PARDUBICE,532 03,CZECH REPUBLIC
RĒZEKNES VALSTSPILSĒTAS PAŠVALDĪBA,ATBRĪVOŠANAS ALEJA 93,RĒZEKNE,LV-4601,LATVIA
SECRETARIA GENERAL DEL SERVICIO DE SALUD DE CASTILLA-LA MANCHA,"AVDA. RÍO GUADIANA, 4",TOLEDO,45071,SPAIN
SKARB PAŃSTWA - 1 REGIONALNA BAZA LOGISTYCZNA W WAŁCZU,UL. CIASNA 7,WAŁCZ,78-600,POLAND
SOCIÉTÉ DU CANAL DE PROVENCE ET D'AMÉNAGEMENT DE LA RÉGION PROVENÇALE,CS 70064,AIX-EN-PROVENCE,13182,FRANCE
"STADT FRANKFURT AM MAIN, AMT FÜR BAU UND IMMOBILIEN",SOLMSSTRAßE 27-37,FRANKFURT AM MAIN,60486,GERMANY
UNIWERSYTET PRZYRODNICZY WE WROCŁAWIU,C.K. NORWIDA 25,WROCŁAW,50-375,POLAND
VÄXJÖ KOMMUN,BOX 1222,VÄXJÖ,351 12,SWEDEN
VILLE DE STRASBOURG,1 PARC DE L'ÉTOILE,STRASBOURG,67076,FRANCE
МЕДИЦИНСКИ УНИВЕРСИТЕТ - ПЛОВДИВ,БУЛ. ВАСИЛ АПРИЛОВ № 15А,ГР. ПЛОВДИВ,4000,BULGARIA
"ÁREA DE GOBIERNO DE PORTAVOZ, SEGURIDAD Y EMERGENCIAS","PRINCIPE DE VERGARA, 140",MADRID,28002,SPAIN
BAU- UND LIEGENSCHAFTSBETRIEB NRW ZENTRALE,MERCEDESSTRAßE 12,DÜSSELDORF,40470,GERMANY
BERUFSSCHULVERBAND STRAUBING-BOGEN,THERESIENPLATZ 2,STRAUBING,94315,GERMANY
BWI GMBH,KARL-LEGIEN-STR. 192,BONN,53117,GERMANY
CA PAU BEARN PYRENEES,"HOTEL DE FRANCE, 2B PLACE ROYALE, CS90547",PAU CEDEX,64000,FRANCE
CONS. DÉPART. DES HAUTS-DE-SEINE,"HÔTEL DU DÉPARTEMENT, DES HAUTS-DE-SEINE, 57 RUE DES LONGUES RAIES",NANTERRE,92000,FRANCE
DATAPORT AÖR,ALTENHOLZER STRAßE 10-14,ALTENHOLZ,24161,GERMANY
EWN ENTSORGUNGSWERK FÜR NUKLEARANLAGEN GMBH,LATZOWER STRAßE 1,RUBENOW,17509,GERMANY
FAKULTNÍ NEMOCNICE U SV. ANNY V BRNĚ,PEKAŘSKÁ 664/53,BRNO,602 00,CZECH REPUBLIC
KRISTIANSTADS KOMMUN,KRISTIANSTADS KOMMUN VÄSTRA STORGATAN 12,KRISTIANSTAD,291 32,SWEDEN
MÉTROPOLE NICE CÔTE D'AZUR,5 RUE DE L'HÔTEL DE VILLE,NICE CEDEX 4,6364,FRANCE
OFFICE OF PUBLIC WORKS (OPW),JONATHAN SWIFT STREET,TRIM,"CO. MEATH, C15 NX36",IRELAND
SJÖFARTSVERKET,ÖSTRA PROMENADEN 7,NORRKÖPING,601 78,SWEDEN
SUBDIRECCIÓN GENERAL SANITARIA DE ASEPEYO. MUTUA COLABORADORA CON LA SEGURIDAD SOCIAL. NUM. 151,"VÍA AUGUSTA, 36",BARCELONA,8006,SPAIN
VYTAUTO DIDŽIOJO UNIVERSITETAS,"K. DONELAIČIO G. 58,",KAUNAS,44248,LITHUANIA
ΕΤΑΙΡΕΙΑ ΥΔΡΕΥΣΕΩΣ ΚΑΙ ΑΠΟΧΕΤΕΥΣΕΩΣ ΠΡΩΤΕΥΟΥΣΗΣ A.E. (Ε.ΥΔ.Α.Π. Α.Ε.),ΩΡΩΠΟΥ 156,GALATSI ATTIKIS,11146,GREECE
"АГЕНЦИЯ ""МИТНИЦИ""",УЛ. Г. С. РАКОВСКИ № 47,ГР. СОФИЯ,1202,BULGARIA
ИНФОРМАЦИОННО ОБСЛУЖВАНЕ АД,УЛ. ПАНАЙОТ ВОЛОВ №2,ГР. СОФИЯ,1504,BULGARIA
AVINOR AS,DRONNING EUFEMIAS GATE 6,OSLO,191,NORWAY
BÆRUM KOMMUNE,POSTBOKS 700,SANDVIKA,1304,NORWAY
COLLECTIVITÉ EUROPÉENNE D'ALSACE,PLACE DU QUARTIER BLANC,STRASBOURG CEDEX 9,67964,FRANCE
DIRECCIÓN GENERAL DE RACIONALIZACIÓN Y CENTRALIZACIÓN DE LA CONTRATACIÓN-JUNTA DE CONTRATACIÓN CENTRALIZADA,"ALCALÁ, 9",MADRID,28014,SPAIN
"""EKO-REGION"" SP. Z O.O.",UL. BAWEŁNIANA 18,BEŁCHATÓW,97-400,POLAND
FINANZBEHÖRDE HAMBURG,GÄNSEMARKT 36,HAMBURG,20354,GERMANY
GROßE KREISSTADT ÖHRINGEN -STADTBAUAMT-,MARKTPLATZ 15,ÖHRINGEN,74613,GERMANY
LE FONDS BELVAL,"1, AVENUE DU ROCK'N'ROLL",ESCH-SUR-ALZETTE,L-4361,LUXEMBOURG
LIBERECKÝ KRAJ,U JEZU 642/2A,LIBEREC,46001,CZECH REPUBLIC
LIMBAŽU NOVADA PAŠVALDĪBA,RĪGAS IELA 16,LIMBAŽI,LV-4001,LATVIA
MEGREZ SP. Z O.O.,UL. EDUKACJI 102,TYCHY,43-100,POLAND
PRESIDENCIA DEL CONSEJO DE ADMINISTRACIÓN DE LA AUTORIDAD PORTUARIA DE BARCELONA (PORT DE BARCELONA),PORTAL DE LA PAU 6,BARCELONA,8039,SPAIN
RETE FERROVIARIA ITALIANA,"VIA DELLO SCALO PRENESTINO, 25",ROMA,159,ITALY
SIA „RĪGAS AUSTRUMU KLĪNISKĀ UNIVERSITĀTES SLIMNĪCA”,HIPOKRĀTA IELĀ 2,RĪGA,LV-1038,LATVIA
SOC DE LA MOBILITE DE AGGL TOULOUSAINE,"21 BOULEVARD DE LA MARQUETTE, BP 10416",TOULOUSE,31004,FRANCE
WOJEWÓDZKIE WIELOSPECJALISTYCZNE CENTRUM ONKOLOGII I TRAUMATOLOGII IM. M. KOPERNIKA W ŁODZI,UL. PABIANICKA 62,ŁÓDŹ,93-513,POLAND
WOJEWÓDZTWO ŚLĄSKIE,UL. LIGONIA 46,KATOWICE,40-037,POLAND
AOK BAYERN - DIE GESUNDHEITSKASSE,CARL-WERY-STR. 28,MÜNCHEN,81739,GERMANY
DIE AUTOBAHN GMBH DES BUNDES - NIEDERLASSUNG NORDBAYERN,FLASCHENHOFSTRAßE 55,NÜRNBERG,90402,GERMANY
ELOGIE-SIEMP,8 BOULEVARD D'INDOCHINE,PARIS CEDEX 19,75924,FRANCE
FAKULTNÍ NEMOCNICE HRADEC KRÁLOVÉ,SOKOLSKÁ 581,HRADEC KRÁLOVÉ,50005,CZECH REPUBLIC
GEM REGELING DCMR MILIEUDIENST RIJNMOND,PARALLELWEG 1,SCHIEDAM,3112NA,NETHERLANDS
IFREMER,1625 ROUTE DE SAINTE ANNE,PLOUZANE,29280,FRANCE
KÖLNER VERKEHRS-BETRIEBE AG,SCHEIDTWEILERSTR. 38,KÖLN,50933,GERMANY
LANDESHAUPTSTADT STUTTGART -,HAUPTSTÄTTER STR. 66,STUTTGART,70178,GERMANY
LANDKREIS CLOPPENBURG,ESCHSTRAßE 29,CLOPPENBURG,49661,GERMANY
LANDKREIS OBERHAVEL,ADOLF-DECHERT-STR. 1,ORANIENBURG,16515,GERMANY
LERUMS KOMMUN,BROBACKEN 1,LERUM,44380,SWEDEN
MINISTERIE VAN DEFENSIE,HERCULESLAAN 1,UTRECHT,3584 AB,NETHERLANDS
MUITINĖS DEPARTAMENTAS PRIE LIETUVOS RESPUBLIKOS FINANSŲ MINISTERIJOS,A. JAKŠTO G. 1,VILNIUS,1105,LITHUANIA
POLREGIO S.A.,UL. KOLEJOWA 1,WARSZAWA,01-217,POLAND
PUBLIC INSTITUTION „PUBLIC SERVICES AGENCY”,"PUSKIN, 42 STREET",CHISINAU,MD-2012,REPUBLIC OF MOLDOVA
"SPITALUL JUDETEAN DE URGENTA ""SF. PANTELIMON"" FOCSANI","STRADA: CUZA VODĂ, NR. 50-52",FOCSANI,620034,ROMANIA
STADT BOCHOLT,KAISER-WILHELM-STRAßE 52-58,BOCHOLT,46395,GERMANY
"STADT WITTEN, ZENTRALES VERGABEAMT",ANNENSTR. 111 B,WITTEN,58453,GERMANY
"UNIVERSITATEA DE MEDICINA SI FARMACIE ""IULIU HATIEGANU"" CLUJ-NAPOCA","STRADA: VICTOR BABES, NR. 8",CLUJ-NAPOCA,400023,ROMANIA
UNIVERZA V MARIBORU,SLOMŠKOV TRG 15,MARIBOR,2000,SLOVENIA
AZIENDA TRASPORTI MILANESI S.P.A.,"FORO BUONAPARTE, 61",MILANO,20121,ITALY
"ČESKÉ DRÁHY, A.S.",NÁBŘEŽÍ L. SVOBODY 1222/12,PRAHA 1,110 15,CZECH REPUBLIC
COMMUNE DE SAINT-DENIS DE LA RÉUNION,"DIRECTION DE LA COMMANDE PUBLIQUE, 18 RUE VALLON HOARAU SAINTE CLOTILDE",SAINT-DENIS,97490,FRANCE
DEUTSCHE RENTENVERSICHERUNG KNAPPSCHAFT-BAHN-SEE,"VERWALTUNGSGEBÄUDE TRIMONTE PARK 2/3, WASSERSTRAßE 215",BOCHUM,44799,GERMANY
DIRECCIÓN DE GESTIÓN ECONÓMICA DE LA JEFATURA DE APOYO LOGÍSTICO DE LA ARMADA,AVDA. PIO XII 83,MADRID,28036,SPAIN
KLINIKUM DER STADT LUDWIGSHAFEN AM RHEIN GGMBH,BREMSERSTR. 79,LUDWIGSHAFEN,67063,GERMANY
NARODOWY INSTYTUT ONKOLOGII IM. MARII SKŁODOWSKIEJ–CURIE - PAŃSTWOWY INSTYTUT BADAWCZY,UL. W. K. ROENTGENA 5,WARSZAWA,02-781,POLAND
POLITECHNIKA BIAŁOSTOCKA,UL. WIEJSKA 45A,BIAŁYSTOK,15-351,POLAND
POLITECHNIKA POZNAŃSKA,PL. M. SKŁODOWSKIEJ- CURIE 5,POZNAŃ,60-965,POLAND
PROVINCIE GELDERLAND,MARKT 11,ARNHEM,6811 CG,NETHERLANDS
STADT ASCHAFFENBURG,DALBERGSTRAßE 15,ASCHAFFENBURG,63739,GERMANY
ŚWIĘTOKRZYSKIE CENTRUM ONKOLOGII SAMODZIELNY PUBLICZNY ZAKŁAD OPIEKI ZDROWOTNEJ,"25-734 KIELCE, UL. ARTWIŃSKIEGO 3 C",KIELCE,25-734,POLAND
VAS “LATVIJAS AUTOCEĻU UZTURĒTĀJS“,KRUSTPILS IELA 4,RĪGA,LV-1073,LATVIA
VERMÖGEN UND BAU BADEN-WÜRTTEMBERG AMT KARLSRUHE,ENGESSERSTRAßE 1,KARLSRUHE,76131,GERMANY
WARSZAWSKI UNIWERSYTET MEDYCZNY,UL. ŻWIRKI I WIGURY 61,WARSZAWA,02-091,POLAND
WOJEWÓDZTWO DOLNOŚLĄSKIE - URZĄD MARSZAŁKOWSKI WOJEWÓDZTWA DOLNOŚLĄSKIEGO,WYBRZEŻE J. SŁOWACKIEGO 12-14,WROCŁAW,50-411,POLAND
AUTOBAHN GMBH DES BUNDES - NL NORD,HEIDENKAMPSWEG 96-98,HAMBURG,20097,GERMANY
GEMEENTE DELFT,STATIONSPLEIN 1,DELFT,2611BV,NETHERLANDS
GULBENES NOVADA PAŠVALDĪBA,ĀBEĻU IELA 2,GULBENE,LV-4401,LATVIA
INSTYTUT BIOLOGII DOŚWIADCZALNEJ IMIENIA MARCELEGO NENCKIEGO POLSKIEJ AKADEMII NAUK,UL. PASTEURA 3,WARSZAWA,02-093,POLAND
ISTITUTO POLIGRAFICO E ZECCA DELLO STATO S.P.A.,VIA SALARIA 691,ROMA,138,ITALY
JUNTA DE GOBIERNO DEL AJUNTAMENT DE VALÈNCIA,"PLAÇA DE L'AJUNTAMENT, 1",VALÈNCIA,46002,SPAIN
KALMAR KOMMUN,BOX 611,KALMAR,39126,SWEDEN
"KRAJSKÁ NEMOCNICE T. BATI, A. S.",HAVLÍČKOVO NÁBŘEŽÍ 600,ZLÍN,76001,CZECH REPUBLIC
POLSKIE SIECIE ELEKTROENERGETYCZNE SA,UL. WARSZAWSKA 165,KONSTANCIN - JEZIORNA,05-520,POLAND
PRESIDENCIA DE LA AUTORIDAD PORTUARIA DE BALEARES,"MOLL VELL,3-5",PALMA DE MALLORCA,7012,SPAIN
RÉGIE IMMOBILIÈRE DE LA VILLE DE PARIS,13 AVENUE DE LA PORTE D'ITALIE,PARIS,75013,FRANCE
REGION GÄVLEBORG,I.U.,GÄVLE,80188,SWEDEN
SPITALUL CLINIC JUDETEAN DE URGENTA CRAIOVA,"STRADA: TABACI, NR. 1",CRAIOVA,200642,ROMANIA
SPLOŠNA BOLNIŠNICA DR. FRANCA DERGANCA NOVA GORICA,ULICA PADLIH BORCEV 13A,ŠEMPETER PRI GORICI,5290,SLOVENIA
STADT BAYREUTH HOCHBAUAMT,LUITPOLDPLATZ 13,BAYREUTH,95444,GERMANY
STUDIERENDENWERK TÜBINGEN-HOHENHEIM A.D.Ö.R.,FRIEDRICHSTRAßE 21,TÜBINGEN,72072,GERMANY
TURUN KAUPUNKI,PL 630,TURKU,20101,FINLAND
UNIVERSITATEA TRANSILVANIA BRASOV,"STRADA: EROILOR, NR. 29",BRASOV,500036,ROMANIA
VALENCIANA D'APROFITAMENT ENERGÈTIC DE RESIDUS S.A. (VAERSA),"AVDA. DE LAS CORTES VALENCIANAS, 20",VALENCIA,46015,SPAIN
WIENER LINIEN GMBH & CO KG,ERDBERGSTRAßE 202,WIEN,1030,AUSTRIA
ΟΡΓΑΝΙΣΜΌΣ ΚΡΑΤΙΚΏΝ ΥΠΗΡΕΣΙΏΝ ΥΓΕΊΑΣ,"ΑΓΊΟΥ ΑΝΤΩΝΊΟΥ 2, ΑΓΛΑΝΤΖΙΆ",ΛΕΥΚΩΣΊΑ,2100,CYPRUS
BANCA NATIONALA A ROMANIEI,"STRADA: DOAMNEI, NR. 8",BUCURESTI,30051,ROMANIA
BORÅS KOMMUN,KUNGSGATAN 57,BORÅS,501 80,SWEDEN
DIRECCIÓN GENERAL DEL AGUA,PLAZA DE SAN JUAN DE LA CRUZ,MADRID,28071,SPAIN
"DOPRAVNÍ PODNIK HL. M. PRAHY, AKCIOVÁ SPOLEČNOST",SOKOLOVSKÁ 42/217,PRAHA 9,19000,CZECH REPUBLIC
EUROPEAN BORDER AND COAST GUARD AGENCY (FRONTEX),PLAC EUROPEJSKI 6,WARSAW,00-844,POLAND
FINANCIJSKA AGENCIJA,ULICA GRADA VUKOVARA 70,ZAGREB,10000,CROATIA
FONDS DU LOGEMENT,"52, BOULEVARD MARCEL CAHEN",LUXEMBOURG,1311,LUXEMBOURG
GEMEENTE 'S-HERTOGENBOSCH,WOLVENHOEK 1,S-HERTOGENBOSCH,5211 HH,NETHERLANDS
GERENCIA DEL ÁREA DE SALUD DE BADAJOZ,"AVDA. DE HUELVA, 8",BADAJOZ,6005,SPAIN
GERENCIA REGIONAL DE SALUD DE CASTILLA Y LEÓN,PASEO DE ZORRILLA 1,VALLADOLID,47007,SPAIN
GROUPE CCIR PARIS ILE-DE-FRANCE,47-49 RUE DE TOCQUEVILLE,PARIS,75017,FRANCE
GYNYBOS RESURSŲ AGENTŪRA PRIE KRAŠTO APSAUGOS MINISTERIJOS,GIEDRAIČIŲ G. 41,VILNIUS,9303,LITHUANIA
HOSPITAL UNIVERSITARIO PRÍNCIPE DE ASTURIAS,"CARRETERA ALCALÁ-MECO, S/N",ALCALÁ DE HENARES,28805,SPAIN
"KRAJSKÁ SPRÁVA A ÚDRŽBA SILNIC VYSOČINY, PŘÍSPĚVKOVÁ ORGANIZACE",KOSOVSKÁ 1122/16,JIHLAVA,58601,CZECH REPUBLIC
KREIS STORMARN,MOMMSENSTR. 14,BAD OLDESLOE,23843,GERMANY
"LANDESHAUPTSTADT MÜNCHEN, DIREKTORIUM, VERGABESTELLE 1 ABT. 2",BIRKERSTRAßE 18,MÜNCHEN,80636,GERMANY
LANDRATSAMT ERZGEBIRGSKREIS,KLOSTERSTRAßE 7,ANNABERG-BUCHHOLZ,9456,GERMANY
LATVIJAS BIOZINĀTŅU UN TEHNOLOĢIJU UNIVERSITĀTE,"LIELĀ IELA 2, JELGAVA",JELGAVA,LV-3001,LATVIA
LUNDS KOMMUN,BOX 41,LUND,221 00,SWEDEN
"LVR-DEZERNAT GEBÄUDE- UND LIEGENSCHAFTSMANAGEMENT, UMWELT, ENERGIE, BAUEN FÜR MENSCHEN GMBH",KENNEDY-UFER 2,KÖLN,50679,GERMANY
MOTALA KOMMUN,DROTTNINGG. 2,MOTALA,59186,SWEDEN
PRESIDENCIA DE LA DIPUTACIÓN PROVINCIAL DE ALICANTE,"AVDA. DE LA ESTACIÓN, 6",ALICANTE,3005,SPAIN
SILENE HABITAT,17 RUE PIERRE MENDÈS FRANCE,SAINT NAZAIRE,44600,FRANCE
"SOCIEDAD ANDALUZA PARA EL DESARROLLO DE LAS TELECOMUNICACIONES, S.A.","CAMINO DE LOS DESCUBRIMIENTOS, 17 41092 SEVILLA",SEVILLA,41092,SPAIN
SPITALUL DE PEDIATRIE PITESTI,"STRADA: DACIA, NR. 1",PITESTI,110414,ROMANIA
"SPMS - SERVIÇOS PARTILHADOS DO MINISTÉRIO DA SAÚDE, E. P. E.","AVENIDA DA REPÚBLICA, N.º 61",LISBOA,1050-189,PORTUGAL
"TECNOLOGÍAS Y SERVICIOS AGRARIOS S.A.,S.M.E., M.P., (TRAGSATEC)",MALDONADO 58,MADRID,28006,SPAIN
UNIVERSITÉ DE LIÈGE,BOULEVARD DE COLONSTER 2 - QUARTIER VILLAGE 3 - BÂTIMENT B9,LIÈGE,4000,BELGIUM
"VŠEOBECNÁ ZDRAVOTNÁ POISŤOVŇA, A.S.",PANÓNSKA CESTA 2,BRATISLAVA - MESTSKÁ ČASŤ PETRŽALKA,85104,SLOVAKIA
AMA SPA,"VIA CALDERON DE LA BARCA, N.87",ROMA,142,ITALY
ANTWERPEN,GROTE MARKT 1,ANTWERPEN,2000,BELGIUM
AZIENDA ZERO - PASSAGGIO GAUDENZIO 1 - PADOVA,PASSAGGIO GAUDENZIO 1,PADOVA,35131,ITALY
CĒSU NOVADA PAŠVALDĪBA,RAUNAS IELA 4,CĒSIS,LV 4101,LATVIA
COMMUNE DE PERPIGNAN,PLACE DE LA LOGE,PERPIGNAN CEDEX,66931,FRANCE
CONSEIL GÉNÉRAL DE LA LOIRE,"HÔTEL DU DÉPARTEMENT, 2 RUE CHARLES DE GAULLE",SAINT-ETIENNE,42022,FRANCE
DEUTSCHES MUSEUM VON MEISTERWERKEN DER NATURWISSENSCHAFT UND TECHNIK (ADÖR),MUSEUMSINSEL 1,MÜNCHEN,80538,GERMANY
GYNYBOS RESURSŲ AGENTŪRA PRIE KRAŠTO APSAUGOS MINISTERIJOS,ŠV. IGNOTO G. 6,VILNIUS,1144,LITHUANIA
MUNICIPIUL TIMISOARA,"STRADA BV.C.D.LOGA , NR. 1",TIMISOARA,300030,ROMANIA
NARODOWY FUNDUSZ ZDROWIA POMORSKI ODDZIAŁ WOJEWÓDZKI,"80-865 GDAŃSK, UL. MARYNARKI POLSKIEJ 148",GDAŃSK,80-865,POLAND
NRW.BANK AÖR,KAVALLERIESTRAßE 22,DÜSSELDORF,40213,GERMANY
PAŃSTWOWE GOSPODARSTWO WODNE WODY POLSKIE - REGIONALNY ZARZĄD GOSPODARKI WODNEJ W SZCZECINIE,UL. ŻELAZNA 59A,WARSZAWA,00-848,POLAND
POLIZEI BERLIN,PLATZ DER LUFTBRÜCKE 6,BERLIN,12101,GERMANY
POLSKA SPÓŁKA GAZOWNICTWA SP. Z O.O. ODDZIAŁ ZAKŁAD GAZOWNICZY WE WROCŁAWIU,UL. ZIĘBICKA 44,WROCŁAW,50-507,POLAND
REGION KRONOBERG,UPPHANDLINGSENHETEN,VÄXJÖ,351 88,SWEDEN
REGION NORMANDIE,CS 50523,CAEN CEDEX,14035,FRANCE
RÉGION NORMANDIE,PLACE REINE MATHILDE CEDEX 01 CS 50523,CAEN,14035,FRANCE
REGION ÖREBRO LÄN,BOX 1613,ÖREBRO,701 16,SWEDEN
REGION STOCKHOLM,BOX 22550,STOCKHOLM,104 22,SWEDEN
"SLOVENSKÁ POŠTA, A.S.",PARTIZÁNSKA CESTA 9,BANSKÁ BYSTRICA,97599,SLOVAKIA
"STADT BOCHUM, REFERAT ZENTRALER EINKAUF - VI/ZEK2",HANS-BÖCKLER-STR. 19,BOCHUM,44787,GERMANY
UNIWERSYTET ŁÓDZKI,UL. NARUTOWICZA 68,ŁÓDŹ,90-136,POLAND
UPPSALA UNIVERSITET,UPPSALA UNIVERSITET DAG HAMMARSKJÖLDS VÄG 7,UPPSALA,752 37,SWEDEN
VALMIERAS NOVADA PAŠVALDĪBA,LĀČPLĒŠA IELĀ 2,VALMIERA,LV-4201,LATVIA
"ŽELEZNIČNÁ SPOLOČNOSŤ SLOVENSKO, A.S.",ROŽŇAVSKÁ 1,BRATISLAVA - MESTSKÁ ČASŤ NOVÉ MESTO,83272,SLOVAKIA
"ГЛАВНА ДИРЕКЦИЯ ""ПОЖАРНА БЕЗОПАСНОСТ И ЗАЩИТА НА НАСЕЛЕНИЕТО"" (ГДПБЗН) - МВР",УЛ. ПИРОТСКА 171 А,СОФИЯ,1309,BULGARIA
ACM HABITAT - OPH MONTPELLIER MÉDITERRANÉE MÉTROPOLE,"407 AVENUE DU PROF. E.ANTONELLI, CS 15590",MONTPELLIER,34074,FRANCE
BRUXELLES ENVIRONNEMENT,AVENUE DU PORT 86C/3000,BRUXELLES,1000,BELGIUM
"COMPANIA NATIONALA DE CAI FERATE ""CFR"" - SA","STRADA: GOLESCU DINICU, NR. 38",BUCURESTI,10873,ROMANIA
DÉPARTEMENT DE SEINE-MARITIME,"HÔTEL DU DÉPARTEMENT, QUAI JEAN MOULIN , CS 56101",ROUEN CEDEX,76101,FRANCE
FLUGHAFEN BERLIN BRANDENBURG GMBH,WILLY-BRANDT-STRAßE 1B,BERLIN,12529,GERMANY
GEBÄUDEMANAGEMENTBETRIEB DER LANDESHAUPTSTADT SAARBRÜCKEN - GMS,BAHNHOFSTRAßE 32,SAARBRÜCKEN,66111,GERMANY
KOMENDA GŁÓWNA POLICJI,PUŁAWSKA 148/150,WARSZAWA,02-624,POLAND
MINISTERUL APARARII NATIONALE - U.M. 02022 CONSTANTA,"STRADA: FULGERULUI, NR. 99",CONSTANTA,900371,ROMANIA
N.V. NEDERLANDSE GASUNIE,CONCOURSLAAN 17,GRONINGEN,9727 KC,NETHERLANDS
CITY OF DONCASTER COUNCIL," CIVIC OFFICE, WATERDALE",DONCASTER,DN1 3BU,UNITED KINGDOM
HEALTH EDUCATION ENGLAND,DUNCOMBE STREET,LEEDS,LS1 4PL,UNITED KINGDOM
UK RESEARCH & INNOVATION,POLARIS HOUSE,SWINDON,SN2 1FL,ENGLAND
CUMBERLAND COUNCIL,CUMBERLAND COUNCIL,CARLISLE,CA1 1RD,UNITED KINGDOM
MILTON KEYNES COUNCIL,MILTON KEYNES BOROUGH COUNCIL,MILTON KEYNES,MK9 3EJ,UNITED KINGDOM
LONDON BOROUGH OF HARINGEY - PARKS AND LEISURE,"HARINGEY COUNCIL, RIVER PARK HOUSE, 225 HIGH ROAD",LONDON,N22 8HQ,UNITED KINGDOM
